id,ancient_name,lat,long,name,pleiades,latlong,country,city
36941,Zeus Thimenos,39.403473,28.573658,4 miles SE Sağırlar,609592,"39.403473,28.573658",TR, 
36631,Pagus Assalitanus,36.412262,9.342684,4 miles SE Thibursicum Bure,315102,"36.412262,9.342684",TN, 
14097,,45.120545,4.821011,Érôme,,"45.120545,4.821011",FR, Érôme
36907,Apollo,38.754645,30.697533,Çavdarlı,609311,"38.754645,30.697533",TR, 
36607,,40.770117,34.363792,İskilip,844955,"40.770117,34.363792",TR, 
36919,Meter Arezastis,39.218213,30.712999,"“Arezastis monument,” N Yazılıkaya",609465,"39.218213,30.712999",TR, 
36870,Kodrigai,36.670271,36.220709,"“Pillars of Jonas”, Sarıseki",658511,"36.670271,36.220709",TR, 
26181,,34.289435,35.84473,Aïn Akrine (Qasr Naous),668346,"34.289435,35.84473",LB, 
20829,,49.7793322131,6.5828471411,Aach,,"49.7793322131,6.5828471411",DE, Aach
43284,,33.50835,35.87329,Aaiha,,"33.50835,35.87329",LB, 
36910,Cybele,39.601295,28.858354,Aşağı Akçaalan,609352,"39.601295,28.858354",TR, 
36889,Forum Cambusis?,22.35937,31.64736,Abu Simbel,795808,"22.35937,31.64736",EG, 
37047,,22.3364985,31.6266735,Abu Simbel,721417202,"22.3364985,31.6266735",EG, 
37121,Aphrodite Aphakitis,34.06805,35.89278,Afqa,668195,"34.06805,35.89278",LB, 
36594,Apollo Korythos,36.857944,21.909984,Ag. Andreas,570096,"36.857944,21.909984",GR, 
36746,,38.768733,22.399625,Ag. Demetrios,540593,"38.768733,22.399625",GR, 
36593,,37.672577,24.325232,Ag. Eirene,570033,"37.672577,24.325232",GR, 
36780,,39.126969,26.21429,Ag. Isidoros,550409,"39.126969,26.21429",GR, 
36764,Kenaion,38.84043,22.866507,"Ag. Konstantinos, Cape Lithada",540858,"38.84043,22.866507",GR, 
36656,Hera,34.898922,32.616022,Ag. Moni,707515,"34.898922,32.616022",CY, 
36787,Dionysos Bresagenes,39.015443,26.166973,Ag. Phokas,550514,"39.015443,26.166973",GR, 
36643,,34.731871,33.139828,Ag. Tykhonas,707451,"34.731871,33.139828",CY, Agios Tychon
42503,,29.20514,25.54359,"Aghūrmī, Siwa",,"29.20514,25.54359",EG, Siwa Oasis
36642,,35.298499,32.962793,Agia Eirini,707438,"35.298499,32.962793",,
43721,,24.025119,32.884469,Agilkia Island,,"24.025119,32.884469",EG, 
43035,Poseidon,37.52255,23.48041,"Agios Nektarios, Poros",,"37.52255,23.48041",GR, 
36682,Apollo,35.59187,23.60028,Agios Sostis bay,589701,"35.59187,23.60028",GR, 
45302,,39.5652,22.122173,Agios Taxiarchis,,"39.5652,22.122173",GR, 
45345,,39.389595,22.016242,Agios Theodoros,,"39.389595,22.016242",GR, 
36723,,41.80666,14.36897,Agnone,432656,"41.80666,14.36897",IT, Agnone
36552,,33.907941,1.369109,Agueneb,285395,"33.907941,1.369109",DZ, Stitten
36918,Meter apo Speleou,39.86528,30.67464,Ahılar,609464,"39.86528,30.67464",TR, 
43283,,33.43422,35.77662,Ain Aata,,"33.43422,35.77662",LB, 
44550,,36.4595819,36.8525095,Ain Dara temple,,"36.4595819,36.8525095",SY, A'en Darah
42518,,25.6,30.61667,Ain et-Tarakwa,,"25.6,30.61667",EG, 
37133,,33.453733,35.788779,Ain Hersha,678007,"33.453733,35.788779",LB, 
44508,,33.653889,35.971667,"Ain Qaniya, Jdeidat Yabous",,"33.653889,35.971667",SY, Jdaidit Yabws
15775,,44.7080317,5.4167044,Aix-en-Diois,167626,"44.7080317,5.4167044",FR, Aix-en-Diois
36891,Paptoulis?,23.4762,32.90831,Ajuala,795839,"23.4762,32.90831",EG, 
36936,Zeus Kersoullos,39.874255,29.20155,Akçapınar/Belören,609586,"39.874255,29.20155",TR, 
36557,,36.531134,4.181324,Akbou des Ait bou Mahdi,295213,"36.531134,4.181324",DZ, Aït Toudert
36653,Artemis,35.057081,33.791481,Akhna,707486,"35.057081,33.791481",,
21934,Akrokorinthos,37.891953,22.873608,Akrokorinthos,570059,"37.891953,22.873608",GR, 
21983,Actium/Apollo Aktios,38.9509,20.7683,Aktio,530771,"38.9509,20.7683",GR, 
36597,Artemis Limnatis,36.96028,22.253477,Alagonia,570120,"36.96028,22.253477",GR, 
36735,,40.480081,15.117101,Albanella,442455,"40.480081,15.117101",IT, Albanella
25494,,39.7216942,-6.8915219,Alcántara,255966,"39.7216942,-6.8915219",ES, Alcántara
15778,,44.1990904,4.233134,Allègre-les-Fumades,147989,"44.1990904,4.233134",FR, Allègre-les-Fumades
26347,,44.499133,4.786401,Allan,167631,"44.499133,4.786401",FR, Allan
37007,Idomene Minor,39.065432,21.109679,Alonaki,530896,"39.065432,21.109679",GR, 
36933,Zeus Bronton Megas,39.536589,30.595738,Alpanos,609583,"39.536589,30.595738",TR, 
36904,,38.125622,30.682778,Altuncebbar,609300,"38.125622,30.682778",TR, 
44285,,47.260854,11.457061,"Am Palmbühel, Ampaß",,"47.260854,11.457061",AT, Ampass
36649,Apollo Melanthios,34.829792,32.577772,Amargetti-Petros Anthropos,707478,"34.829792,32.577772",CY, Amargeti
21935,Amphiareion,38.291099,23.846116,Amphiareion,540628,"38.291099,23.846116",GR, 
26183,,34.29928,35.80467,Amyun,668186,"34.29928,35.80467",LB, 
23435,Iuppiter Urius,41.178655,29.094691,Anadolu Kavaği,521046,"41.178655,29.094691",TR, 
44379,,37.421687,22.250243,Ano Asea,,"37.421687,22.250243",GR, 
23687,Anthele,38.795895,22.510319,Anthili,540640,"38.795895,22.510319",GR, 
42939,,40.8476994,14.0530815,"Antro della Sibilla, Cuma",,"40.8476994,14.0530815",IT, Monte di Cuma
36977,Menelaion,37.065845,22.453421,Aphisiou,570477,"37.065845,22.453421",GR, 
22851,Apollo Erethimios,36.375016,28.030801,Apollo Erethimios,589700,"36.375016,28.030801",GR, Theologos
22718,Apollo Hylates,34.672532,32.863627,Apollo Hylates,707476,"34.672532,32.863627",CY, Episkopi
20819,,48.561721,10.409111,"Apollo-Grannus Tempel, Faimingen",,"48.561721,10.409111",DE, Lauingen
22686,Apollo,37.39947,25.267214,"Apollo, Delos",599506,"37.39947,25.267214",GR, 
36784,,39.1159,26.1027,Apotheke,550446,"39.1159,26.1027",GR, 
36753,Apollo Nasiotas,38.378327,22.401788,Apsiphia Is.,540653,"38.378327,22.401788",GR, 
37135,,33.50343,35.82274,Aqaba,678026,"33.50343,35.82274",LB, 
45651,,47.563798,19.050239,Aquincum Mithraeum,,"47.563798,19.050239",HU, Budapest
36983,Athena Skiras,37.983355,23.537097,Arapis,579886,"37.983355,23.537097",GR, 
44523,,40.633325,22.952947,Arch of Galerius and Rotunda,,"40.633325,22.952947",GR, Thessaloniki
21945,Olympia,37.637849,21.630126,Archaia Olympia,570531,"37.637849,21.630126",GR, 
26595,,41.49703,12.99139,"Archi di San Lidano, Sezze",423047,"41.49703,12.99139",IT, 
36877,,37.108227,14.397015,"Arcia, Niscemi",462100,"37.108227,14.397015",IT, 
36739,Mefitis,40.9747584,15.1462381,"Area archeologica della Valle d’Ansanto, Rocca San Felice",442653,"40.9747584,15.1462381",IT, 
42148,,38.111146,15.649244,"Area sacra Griso-Laboccetta, Reggio di Calabria",,"38.111146,15.649244",IT, Reggio Calabria
18147,,48.999616,1.110515,Arnières-sur-Iton,108757,"48.999616,1.110515",FR, Arnières-sur-Iton
8396,,44.926111,2.440556,"Aron, Aurillac",138193,"44.926111,2.440556",FR, Aurillac
36909,,39.050328,30.488595,Arslan Taş,609324,"39.050328,30.488595",TR, 
36645,Aphrodite Golgia,35.087379,33.620066,"Arsos, Athienou",707470,"35.087379,33.620066",,
21970,Artemision,39.017832,23.220954,Artemision,540667,"39.017832,23.220954",GR, 
44353,,56.02405,-3.800156,"Arthur's Oon, Stenhouse",,"56.02405,-3.800156",GB, Stenhousemuir
36603,,41.185198,32.903236,Asağı Güney,844868,"41.185198,32.903236",TR, 
20822,,49.7540781637,6.6306992791,"Asclepius-Tempel, Altstadt",,"49.7540781637,6.6306992791",DE, TR
36584,,32.7894,22.2969,Asgafa,375265,"32.7894,22.2969",LY, Al Qubah
39092,,48.471022,-2.011823,"Asile des Pêcheurs, Taden",,"48.471022,-2.011823",FR, Taden
22681,Asklepieion,36.875681,27.257012,"Asklepieion, Kos",599528,"36.875681,27.257012",GR, 
22685,Asklepieion/Thesmophorion?/Apollo,37.077965,25.140825,"Asklepieion, Paros",599529,"37.077965,25.140825",GR, Paros
43054,,40.1742274,22.4937708,"Asklepios, Dion",,"40.1742274,22.4937708",GR, 
22612,Asklepieion,37.596111,23.079167,Asklipieio,570127,"37.596111,23.079167",GR, Epidavros
36574,,32.377092,20.821488,Aslaia,373739,"32.377092,20.821488",LY, 
36700,,36.7185,26.9743,"Aspripetra, Kos",599533,"36.7185,26.9743",GR, 
37003,Hapsasieion,41.024331,28.951356,at Kepos,521025,"41.024331,28.951356",TR, 
36984,Herakleion,38.121313,23.976136,"at Marathon, N Mikron Helos",579948,"38.121313,23.976136",GR, Ag. Panteleimon
36725,,42.066711,14.446065,Atessa,432707,"42.066711,14.446065",IT, Atessa
36650,Apollo,35.056263,33.581129,Athienou-Ag. Fotios,707479,"35.056263,33.581129",,
22028,Leukothea,41.724221,43.166843,Atskuri,863835,"41.724221,43.166843",GE, Atskuri
20279,,49.9044756129,6.5414370921,"Auf der Heid, Meckel",,"49.9044756129,6.5414370921",DE, Meckel
36931,Zeus Bronton 1,39.582344,30.516333,Avdan,609580,"39.582344,30.516333",TR, 
36752,Apollo,38.50132,24.123329,Avlonari/Itea,540652,"38.50132,24.123329",GR, Avlonari
25637,,51.321052,0.507891,Aylesford,,"51.321052,0.507891",GB, 
36932,Zeus Bronton 3,39.568609,30.440268,Ayvacık,609582,"39.568609,30.440268",TR, 
36934,Zeus ek Didymon Dryon?,38.640404,28.586062,Börtlüce,609584,"38.640404,28.586062",TR, 
17773,,49.744639,7.009449,Bäsch,109374,"49.744639,7.009449",DE, Thalfang
36789,,40.659333,35.924561,Büyük Çelebi,857072,"40.659333,35.924561",TR, 
20868,,49.594225,4.669616,Baâlons,,"49.594225,4.669616",FR, Baâlons
21092,,34.547559,38.2730959,"Baal Temple, Palmyra",,"34.547559,38.2730959",SY, Palmyra
23700,*Panamara,37.2565,28.10687,Bağyaka/Muğla,599853,"37.2565,28.10687",TR, 
36905,Angdisseon,38.860127,30.777064,Bacakale,609304,"38.860127,30.777064",TR, 
17243,Nemora Vacunae,42.54851,13.12684,"Bacugno, Posta",413223,"42.54851,13.12684",IT, Bacugno
2200,,50.0712825,7.0365409,Bad Bertrich,108783,"50.0712825,7.0365409",DE, Bad Bertrich
41677,,39.201378,8.635466,"Bagoi, Perdaxius",,"39.201378,8.635466",IT, 
20760,,48.001416,6.26457,Bains-les-Bains,,"48.001416,6.26457",FR, Bains-les-Bains
44514,,33.593459,35.924413,Bakka,,"33.593459,35.924413",LB, 
45688,,49.99742,8.26984,"Ballplatz, Mainz",,"49.99742,8.26984",DE, MZ
36938,Zeus Orkamaneites,38.714726,29.747816,Banaz,609588,"38.714726,29.747816",TR, 
36564,,32.03552,49.33415,Bard-i Nishande,912820,"32.03552,49.33415",IR, 
37090,,29.56797,52.653905,Barm-i Dilak,922623,"29.56797,52.653905",IR, Shiraz
15763,,49.13204,-0.47577,Baron-sur-Odon,69476,"49.13204,-0.47577",FR, Baron-sur-Odon
37158,Robigo,41.959271,12.447668,Barrington Atlas grid 43 B2,423024,"41.959271,12.447668",IT, Roma
37160,Sep. Geta,41.866599,12.505709,Barrington Atlas grid 43 C2,423065,"41.866599,12.505709",IT, Roma
36982,Apollo,37.81001,23.7737,Barrington Atlas grid 59 C3,579875,"37.81001,23.7737",GR, Vouliagmeni
21907,Bassai,37.429653,21.900415,Bassae,570148,"37.429653,21.900415",GR, 
37067,,36.549604,44.33331,Batas-Harir,874397,"36.549604,44.33331",IQ, Harir
20713,,50.0089234588,6.9788384839,Bausendorf,,"50.0089234588,6.9788384839",DE, Bausendorf
37068,,36.725062,43.405319,Bavian,874398,"36.725062,43.405319",IQ, 
12968,,45.1279546,3.9416692,Beaulieu,167670,"45.1279546,3.9416692",FR, Beaulieu
36604,,40.703576,33.965162,Beşdut,844876,"40.703576,33.965162",TR, 
20831,,49.7038854372,6.7050365893,"Beim Lindenkreuz, Gusterath",,"49.7038854372,6.7050365893",DE, Gusterath
15766,,43.1326626,1.0263209,Belbèze-en-Comminges,246231,"43.1326626,1.0263209",FR, Belbèze-en-Comminges
22783,,38.014624,27.472097,Belevi,599556,"38.014624,27.472097",TR, 
39564,,46.53293631,6.643835901,Belvédère du Signal,,"46.53293631,6.643835901",CH, Lausanne
20830,,50.0408269884,7.0739282218,Bengel,,"50.0408269884,7.0739282218",DE, Bengel
36946,,32.015024,10.781455,Beni Guedal,344311,"32.015024,10.781455",TN, 
40733,,50.012611,7.178739,"Bergheiligtum, Beinter Kopf",,"50.012611,7.178739",DE, Zell (Mosel)
40734,,50.109177,7.123611,"Bergheiligtum, Calmont",,"50.109177,7.123611",DE, Bremm
40730,,48.407143,8.020556,"Bergheiligtum, Gengenbach",,"48.407143,8.020556",DE, Gengenbach
39153,,49.543842,7.561576,"Bergheiligtum, Jettenbach",,"49.543842,7.561576",DE, Jettenbach
18124,Canetonum,49.1733,0.621389,Berthouville,108852,"49.1733,0.621389",FR, Berthouville
37065,,53.999904,15.999978,Białęcino,20407,"53.999904,15.999978",PL, Białogard
19335,,49.297417,7.2925,Bierbach,,"49.297417,7.2925",DE, Homburg
22159,Philai/Philae,24.021732,32.888882,Bilaq,786089,"24.021732,32.888882",EG, 
38817,,46.013637,8.906038,Bioggio,,"46.013637,8.906038",CH, Bioggio
36947,,30.491327,14.710895,Bir es-Shawi,344321,"30.491327,14.710895",LY, 
36948,,31.349938,13.349962,Bir Nesma,344326,"31.349938,13.349962",LY, Nasmah
36575,,32.747678,22.391705,Bir Tarakenet,373759,"32.747678,22.391705",LY, Ayn Marrah
38832,,46.745881402,7.595799674,"Bischofsmatt, Allmendingen, Thun",,"46.745881402,7.595799674",CH, Thun
22642,,37.059181,14.263184,"Bitalemi, Gela",462114,"37.059181,14.263184",IT, Piana del Signore
37168,,41.67018,1.82419,"Boades, Castellgalí",246252,"41.67018,1.82419",ES, Castellgalí
20618,,49.580788,5.105463,"Bois communal du Flavier, Mouzon",,"49.580788,5.105463",FR, Mouzon
20762,,50.109268,4.592736,"Bois de Noel, Matagne-la-Grande",,"50.109268,4.592736",BE, Philippeville
26629,,49.816505,2.646559,"Bois Titran, Caix",,"49.816505,2.646559",FR, Caix
20847,,50.30086,6.83753,Bongard,,"50.30086,6.83753",DE, Bongard
45682,,46.74432,6.53707,"Boscéaz, Orbe",,"46.74432,6.53707",CH, Orbe
25689,,50.840035,-0.850708,Bosham,,"50.840035,-0.850708",GB, Bosham
39091,,48.049621,-1.900603,"Bouexière, Bréal-sous-Montfort",,"48.049621,-1.900603",FR, Bréal-sous-Montfort
44413,,51.991663,-0.939433,"Bourton Grounds, Buckingham",,"51.991663,-0.939433",GB, 
20159,,43.872317,2.636278,"Boutaran, Saint-Sernin-sur-Rance",,"43.872317,2.636278",FR, Saint-Sernin-sur-Rance
20752,,45.77855,3.143113,"Brézet, Clermont-Ferrand (1)",,"45.77855,3.143113",FR, Clermont-Ferrand
20753,,45.77855,3.143113,"Brézet, Clermont-Ferrand (2)",,"45.77855,3.143113",FR, Clermont-Ferrand
43197,,50.218475,7.2154,Brachtendorf,,"50.218475,7.2154",DE, Dünfus
26649,,49.94322,1.12279,Bracquemont,,"49.94322,1.12279",FR, Bracquemont
22845,Artemis Brauronia,37.926189,23.9937505,Brauron,579879,"37.926189,23.9937505",GR, 
25119,,37.971584,23.725421,Brauroneion,,"37.971584,23.725421",GR, Athina
25617,,51.324209,-3.015512,"Brean Down, Brean",79351,"51.324209,-3.015512",GB, Brean
12613,,45.4524901,6.5664689,Brides-les-Bains,167689,"45.4524901,6.5664689",FR, Brides-les-Bains
25489,,52.4617,-0.586992,Brigstock,79356,"52.4617,-0.586992",GB, Brigstock
36576,,32.818179,21.840833,Bu Darag,373762,"32.818179,21.840833",LY, Shahat
25408,,34.832042,67.826803,Buddhas of Bamiyan,,"34.832042,67.826803",AF, Bamyan
17570,,45.852879,4.583386,Bully,167695,"45.852879,4.583386",FR, Bully
20859,,49.9244951676,6.6182192606,"Burgberg, Sülm",,"49.9244951676,6.6182192606",DE, Sülm
42734,,46.549678,13.6604,"Burgruine Straßfried, Maglern, Arnoldstein",,"46.549678,13.6604",AT, Hohenthurn
37183,,34.103607,43.960471,Burj al-Qa'im,893965,"34.103607,43.960471",IQ, Samarra
19320,Porcetum,50.7634,6.091,Burtscheid,,"50.7634,6.091",DE, AC
25298,,37.0862074,14.8850216,Buscemi,462120,"37.0862074,14.8850216",IT, Buscemi
42221,,49.04524,1.57004,"Butte, Bennecourt",,"49.04524,1.57004",FR, Bennecourt
20837,,49.8091371677,6.6061575438,Butzweiler,,"49.8091371677,6.6061575438",DE, Newel
20855,,49.81667,6.61667,"Butzweiler, Pfarrkirche",,"49.81667,6.61667",DE, Newel
26182,,34.269932,35.821608,Bziza,668217,"34.269932,35.821608",LB, 
9021,[Sauriciacum],48.69783,5.63705,"Côte-Saint-Jean, Sorcy-Saint-Martin",,"48.69783,5.63705",FR, Sorcy-Saint-Martin
40134,,40.41958,-7.22432,Cabeço de Fráguas,,"40.41958,-7.22432",PT, 
45653,,53.137172,-4.262414,Caernarfon Mithraeum,,"53.137172,-4.262414",GB, Caernarfon
37169,,41.937187,2.760627,"Cal Temple, Aiguaviva",246277,"41.937187,2.760627",ES, Aiguaviva
26366,,46.44906,12.38042,Calalzo di Cadore,187333,"46.44906,12.38042",IT, Calalzo di Cadore
36588,Prepelaion?,38.13465,27.115106,Cambaz Tepe,550844,"38.13465,27.115106",TR, 
42673,Capitolium,41.8925778,12.4822154,"Campidoglio, Roma",422865,"41.8925778,12.4822154",IT, Roma
23753,,41.438889,14.508333,Campochiaro,432746,"41.438889,14.508333",IT, 
26597,,41.54559,12.73606,"Campoverde, Aprilia",422862,"41.54559,12.73606",IT, Campoverde
37170,,41.534533,2.389314,"Can Modolell, Cabrera de Mar",246287,"41.534533,2.389314",ES, Cabrera de Mar
39956,,38.7011,-5.68604,"Cancho Roano, Zalamea de la Serena",,"38.7011,-5.68604",ES, Zalamea de la Serena
42145,,38.23335,15.65506,"Cannitello, Villa San Giovanni",,"38.23335,15.65506",IT, Villa San Giovanni
36736,,40.42312,15.08216,Capaccio,442526,"40.42312,15.08216",IT, Capaccio
36644,Aphrodite Akraia,35.692703,34.586367,Cape Apostolos Andreas,707469,"35.692703,34.586367",,
36624,Parthenion? Akron,44.514846,33.491262,Cape Fiolent,226714,"44.514846,33.491262",,
22790,Apollo Leukatas,38.56339,20.54282,Cape Lefkatas,530806,"38.56339,20.54282",GR, 
36683,Athena,35.30699,26.312224,Cape Sidero,589718,"35.30699,26.312224",GR, 
41377,,45.5399911,10.2254991,"Capitolium, Brescia",,"45.5399911,10.2254991",IT, Brescia
36876,,38.95411,17.16869,"Capo Cimiti, Isola di Capo Rizzuto",452283,"38.95411,17.16869",IT, 
23187,Hera,39.028864,17.205128,"Capo Colonna, Crotone",452332,"39.028864,17.205128",IT, 
36737,,40.451058,15.042153,"Capo di Fiume, Capaccio",442527,"40.451058,15.042153",IT, Pietrale-capo di Fiume
26574,,42.16587,13.81295,"Capo Pescara, Popoli",413249,"42.16587,13.81295",IT, 
26462,,41.714422,14.29561,Carovilli,432759,"41.714422,14.29561",IT, Carovilli
26636,,49.90433,3.01797,Cartigny,,"49.90433,3.01797",FR, Cartigny
45656,,38.91114,-6.34111,"Casa del Mitreo, Mérida",,"38.91114,-6.34111",ES, Mérida
36878,,37.1401,13.98453,"Casalicchio, Licata",462134,"37.1401,13.98453",IT, 
37148,,43.12708,12.05024,Castiglione del Lago,413071,"43.12708,12.05024",IT, Castiglione del Lago
44410,,51.24904,1.344522,"Castle Fields, Worth",,"51.24904,1.344522",GB, Worth
20866,,49.303616,4.152483,Caurel,,"49.303616,4.152483",FR, Caurel
42926,,48.60445,1.64601,"Cavée du Moulin, Hanches",,"48.60445,1.64601",FR, Hanches
17219,Minerva Cabardiacensis,44.84342,9.51838,"Caverzago, Travo",383709,"44.84342,9.51838",IT, 
37001,,38.73277,-1.27022,"Cerro de los Santos, Montealegre del Castillo",265862,"38.73277,-1.27022",ES, Montealegre del Castillo
37152,,41.862522,12.533184,Cessati Spiriti,422892,"41.862522,12.533184",IT, Roma
39453,,43.372565,5.027046,"Château de Ponteau, Martigues",,"43.372565,5.027046",FR, Martigues
18074,,43.681944,5.197222,"Château-Bas, Vernègues",148046,"43.681944,5.197222",FR, Vernègues
2130,Riobe?,48.5932,3.109,Châteaubleau,108879,"48.5932,3.109",FR, Châteaubleau
39298,,45.2499,4.79432,"Châtelet, Saint-Désirat",,"45.2499,4.79432",FR, Saint-Désirat
39458,,47.413,0.9903,"Châteliers, Amboise",,"47.413,0.9903",FR, Amboise
37091,,30.31731,50.907919,Chahar Deh,922629,"30.31731,50.907919",IR, Sarab e Naniz
17719,,44.878459,4.575892,Chalencon,167707,"44.878459,4.575892",FR, Chalencon
13742,[Camelaria],45.76829,3.05711,Chamalières,138260,"45.76829,3.05711",FR, Chamalières
20621,,46.547469,2.112692,Champillet,,"46.547469,2.112692",FR, Champillet
13002,,49.30994,2.85374,Champlieu,108876,"49.30994,2.85374",FR, Orrouy
18237,,44.466806,3.340478,Chanac,167709,"44.466806,3.340478",FR, Chanac
15648,,47.4724573,0.702594,Chanceaux-sur-Choisille,138286,"47.4724573,0.702594",FR, Chanceaux-sur-Choisille
44408,,50.896526,-0.381622,"Chanctonbury Ring, Washington",,"50.896526,-0.381622",GB, 
37188,,33.5586,46.499199,Changiyeh,903007,"33.5586,46.499199",IR, Ghajar
45692,,46.628159,0.332792,"Chardonchamp, Migné-Auxances",,"46.628159,0.332792",FR, Migné-Auxances
36601,Hyperteleaton,36.732977,22.904198,Chasanaga,570302,"36.732977,22.904198",GR, 
38850,,46.85029063,6.537851604,"Chasseron, Bullet",,"46.85029063,6.537851604",CH, Bullet
25585,,51.818115,-1.912619,Chedworth temple,,"51.818115,-1.912619",GB, 
36563,,36.328033,6.451106,Chettaba,305060,"36.328033,6.451106",DZ, Aïn Smara
39297,,46.07193,1.3012,"Chez Rigros, Saint-Pardoux",,"46.07193,1.3012",FR, Saint-Pardoux
45678,,42.2398,12.2269,"Chiesa della Madonna del Parto, Sutri",,"42.2398,12.2269",IT, Sutri
42237,,42.73322,12.73713,"Chiesa di Sant'Ansano, Spoleto",,"42.73322,12.73713",IT, Spoleto
36766,,38.573501,21.702461,Chrysovitsa,540866,"38.573501,21.702461",GR, Chrisovitsa
26568,,42.308926,13.445949,"Civita di Bagno, L'Aquila",413085,"42.308926,13.445949",IT, Civita di Bagno
20553,,47.9961430832,2.6763175927,"Clos du Détour, Pannes",,"47.9961430832,2.6763175927",FR, Pannes
42229,,50.05582,1.938265,Cocquerel,,"50.05582,1.938265",FR, Cocquerel
26579,,42.03097,13.77515,Cocullo,432791,"42.03097,13.77515",IT, Cocullo
25626,,51.141012,-2.24438,Cold Kitchen Hill,,"51.141012,-2.24438",GB, 
25551,,52.512044,-1.714101,Coleshill,79397,"52.512044,-1.714101",GB, Coleshill
17809,*Ganuenta?,51.617485,3.823757,Colijnsplaat,109000,"51.617485,3.823757",NL, Colijnsplaat
26472,,41.50493,14.56255,"Colle Sparanise, Colle d'Anchise",432796,"41.50493,14.56255",IT, 
39558,,47.037798353,7.087328205,Colline du Jolimont,,"47.037798353,7.087328205",CH, Erlach
44404,,52.593693,-0.514395,Collyweston,,"52.593693,-0.514395",GB, 
17324,,46.030545,5.498806,Corlier,167726,"46.030545,5.498806",FR, Corlier
36767,Korykion Antron,38.51526,22.52073,Corycian Cave,540883,"38.51526,22.52073",GR, 
18211,,44.20858,3.409085,Costeguison,148061,"44.20858,3.409085",FR, Meyrueis
20067,,44.124693,4.582036,"Courac, Tresques",,"44.124693,4.582036",FR, Tresques
20754,,45.754178,3.538632,Courpière,,"45.754178,3.538632",FR, Courpière
17686,,45.72792,3.968177,Couzan,167889,"45.72792,3.968177",FR, Sail-sous-Couzan
16983,,47.8693833,2.8278507,"Craon, Montbouy",138468,"47.8693833,2.8278507",FR, Montbouy
26593,,41.73144,12.95403,"Crepaddosso, Artena",422913,"41.73144,12.95403",IT, Quarto Chilometro
44412,,52.583516,1.080879,"Crownthorpe, Wicklewood",,"52.583516,1.080879",GB, 
18055,,43.774167,5.439444,Cucuron,148064,"43.774167,5.439444",FR, Cucuron
36996,,38.003688,-6.53533,Cueva del Agua,256142,"38.003688,-6.53533",ES, Cañaveral de León
17718,,44.995272,4.516512,Désaignes,167740,"44.995272,4.516512",FR, Désaignes
36892,Parembole?,23.89787,32.86451,Dabod,795840,"23.89787,32.86451",EG, 
43286,,33.69133,35.876608,Dakoue,,"33.69133,35.876608",LB, 
21089,,33.511552,36.3038,"Damascus, Temple of Jupiter",,"33.511552,36.3038",SY, Damascus
21085,,33.51171,36.30661,"Damascus, Umayyad Mosque",,"33.51171,36.30661",SY, Damascus
21293,,46.8877702,13.2825646,"Danielsberg, Kolbnitz",187360,"46.8877702,13.2825646",AT, Preisdorf
36981,Aphrodite,38.01298,23.63594,Daphni,579874,"38.01298,23.63594",GR, Chaidari
37093,,29.96008,52.915364,Darre-ye Barre,922633,"29.96008,52.915364",IR, 
37092,,30.37466,51.30114,Dav-Dokhtar,922631,"30.37466,51.30114",IR, 
43285,,33.58911,36.01913,Deir El Aachayer,,"33.58911,36.01913",LB, 
37137,Balmarcodes,33.856054,35.598053,Deir el-Qal'a,678047,"33.856054,35.598053",LB, 
42552,,25.69522,32.57848,Deir esch-Schelwit,,"25.69522,32.57848",EG, 
36911,Cybele,39.592474,29.385419,Delikli Taş,609353,"39.592474,29.385419",TR, 
22842,,38.041096,23.538311,"Demeter Temple, Elefsina",579910,"38.041096,23.538311",GR, Elefsina
36894,Tutzis,23.37638,32.93326,Dendur,795875,"23.37638,32.93326",EG, 
1834,,48.441735,6.73517,Deneuvre,108922,"48.441735,6.73517",FR, Deneuvre
20864,,49.7258412,6.9822534,Dhronecken,,"49.7258412,6.9822534",DE, Dhronecken
45404,,47.986389,9.053611,"Dianatempel, Heudorf, Meßkirch",,"47.986389,9.053611",DE, Meßkirch
22649,Didyma/Branchidai,37.384829,27.256115,Didim,599593,"37.384829,27.256115",TR, 
36598,Didymoi,37.500047,23.154194,Didyma?,570196,"37.500047,23.154194",GR, 
22690,Diktynnaion,35.663634,23.767831,Diktynnaion,589760,"35.663634,23.767831",GR, 
44343,Asklepieion,37.5399,22.0453,Dimitsana,,"37.5399,22.0453",GR, 
36888,,23.84491,32.88437,Dimri,795800,"23.84491,32.88437",EG, 
44927,,49.776583,7.701194,Disibodenberg,,"49.776583,7.701194",DE, Odernheim am Glan
36628,,36.50885,7.09796,Djebel Taya,305072,"36.50885,7.09796",DZ, Bouhamdane
36553,,35.1168,1.213,Djedars,285435,"35.1168,1.213",DZ, 
39141,,48.882706,11.263725,"Dolichenum, Pfünz",,"48.882706,11.263725",DE, Walting
2101,,51.56309,3.49681,Domburg,108929,"51.56309,3.49681",NL, Domburg
20882,,50.3036,1.91816,Dompierre-sur-Authie,,"50.3036,1.91816",FR, Dompierre-sur-Authie
42524,,25.490692,30.511396,"Doppeltempel, Ain el-Bileida",,"25.490692,30.511396",EG, Kharga
17447,,48.2676457673,3.2052326588,Douilly,108924,"48.2676457673,3.2052326588",FR, Pont-sur-Yonne
42306,,45.44566,8.61974,Duomo di Novara,,"45.44566,8.61974",IT, Novara
20259,,49.6242196386,1.9061067196,"Ecâtelet, Saint-Maur",,"49.6242196386,1.9061067196",FR, Saint-Maur
44516,,34.139184,35.663217,Edde,,"34.139184,35.663217",LB, 
20848,,49.8400683141,6.5033336437,Eisenach,,"49.8400683141,6.5033336437",DE, Eisenach
36906,Apollo,38.810219,29.69704,Ekşi Su Deresi,609310,"38.810219,29.69704",TR, 
37173,,41.887326,2.23509,"El Clascar, Malla",246482,"41.887326,2.23509",ES, Malla
36629,,36.366909,6.620453,el Hofra,305091,"36.366909,6.620453",DZ, CZL
36627,,25.130663,32.808339,El Kab,440947682,"25.130663,32.808339",EG, 
36883,,24.196115,32.858861,El Kubaniya,786056,"24.196115,32.858861",EG, 
36674,,30.78911,28.91098,el Qassabat el-Gharbiya,716631,"30.78911,28.91098",EG, 
36945,,32.48396,10.520905,el-Amrouni,344293,"32.48396,10.520905",TN, 
36670,,28.34685,28.82158,el-Ayoun,716530,"28.34685,28.82158",EG, 
36949,,32.766545,12.516607,el-Chatatba,344338,"32.766545,12.516607",LY, Sabratah
22407,Labyrinthos,29.27412,30.898765,El-Deir,736952,"29.27412,30.898765",EG, 
36572,,31.160761,16.9848,el-Garrusc,363965,"31.160761,16.9848",LY, 
37134,Apollo,34.003887,36.029125,el-Hadet,678024,"34.003887,36.029125",LB, 
36872,Nymphaion/Balaneion Tiberinon,36.0342195,35.9974405,"el-Hammam, S Miyadun",658552,"36.0342195,35.9974405",TR, 
36867,,36.074207,36.45474,el-Hosn,658482,"36.074207,36.45474",SY, 
22408,,29.236192,30.970699,el-Lahun,736953,"29.236192,30.970699",EG, 
36673,,28.35692,28.84662,el-Muftella,716602,"28.35692,28.84662",EG, 
36880,,25.468889,30.564167,el-Nadura,776206,"25.468889,30.564167",EG, Kharga
36641,,31.318351,35.743945,el-Qasr,697732,"31.318351,35.743945",JO, 
25118,,37.973686,23.7246,Eleusinion,,"37.973686,23.7246",GR, Athina
36696,Archilocheion?,37.088485,25.179009,"Elitas, Paros",599512,"37.088485,25.179009",GR, 
37057,,35.950111,9.0994,Ellès,324702,"35.950111,9.0994",TN, Elles
1537,,51.919846,5.849536,Elst,98951,"51.919846,5.849536",NL, Elst
39114,,51.921257,5.857063,Elst-Westeraam,,"51.921257,5.857063",NL, Elst
20721,,49.8439508765,7.0742833795,Elzerath,,"49.8439508765,7.0742833795",DE, Morbach
37004,Hecate,41.10831,29.052496,Emirgân,521027,"41.10831,29.052496",TR, 
39111,,51.73455,5.310704,Empel,,"51.73455,5.310704",NL, 's-Hertogenbosch
25116,,37.972222,23.726389,Erechtheion,,"37.972222,23.726389",GR, Athina
45648,,49.8874035,7.8709034,"Eremitage, Bretzenheim",,"49.8874035,7.8709034",DE, Bretzenheim
36927,"Zeus Andreas, Ampeleites",39.080261,30.037507,Erikli Mevkii,609575,"39.080261,30.037507",TR, 
39973,,41.261585,-0.126965,"Ermita de la Consolación, Chiprana",,"41.261585,-0.126965",ES, Chiprana
39986,,38.02968,-1.8792,"Ermita de la Encarnación, Caravaca de la Cruz",,"38.02968,-1.8792",ES, Caravaca de la Cruz
37171,,41.57134,0.27569,"Ermita de San Valero, Vellilla de Cinca",246386,"41.57134,0.27569",ES, Velilla de Cinca
20706,,49.8424356123,6.4212669948,Ernzen (Messenweg),,"49.8424356123,6.4212669948",DE, Ernzen
36630,,36.260804,6.692398,es-Soumaa,305154,"36.260804,6.692398",DZ, El Khroub
36785,"Artemis Anaeitis, Men Tiamou",38.495984,28.563504,Esenyazı,550456,"38.495984,28.563504",TR, 
20087,,47.753238,4.783963,Essarois,,"47.753238,4.783963",FR, Essarois
2144,,49.425831,2.6447348,Estrées-Saint-Denis,108968,"49.425831,2.6447348",FR, Estrées-Saint-Denis
42626,,41.83082,12.46943,"EUR, Roma",426588,"41.83082,12.46943",IT, Roma
1181,,49.8780633293,6.7743127205,Föhren,,"49.8780633293,6.7743127205",DE, Hetzerath
36989,Chrysas,37.633905,14.387218,"Faccialavata, Leonforte",462159,"37.633905,14.387218",IT, Leonforte
37070,,36.888117,45.841443,Fakhrikah,874471,"36.888117,45.841443",IR, 
45006,,43.7949608,4.2278093,Fanum des Castels,,"43.7949608,4.2278093",FR, Nages-et-Solorgues
45005,,43.7990386,4.2253958,Fanum du Roque de Vif,,"43.7990386,4.2253958",FR, Saint-Dionisy
40737,,50.102436,4.636188,"Fanum, Matagne-la-Petite",,"50.102436,4.636188",BE, Doische
25679,,51.193653,-0.496317,Farley Heath,79459,"51.193653,-0.496317",GB, Albury
37094,,28.871164,52.066735,Farrashband 1,922638,"28.871164,52.066735",IR, Farrashband
37095,,28.838576,52.059874,Farrashband 2,922639,"28.838576,52.059874",IR, 
37096,,28.804273,52.072738,Farrashband 3,922640,"28.804273,52.072738",IR, 
37097,,28.788836,52.076168,Farrashband 4,922641,"28.788836,52.076168",IR, 
37098,,28.772542,52.056444,Farrashband 5,922642,"28.772542,52.056444",IR, 
36669,Zeus Labranios,34.758237,33.014159,Fasoula-Kastron tou Ionnou,707645,"34.758237,33.014159",CY, Palodia
20095,,42.954099,0.537887,Ferrère,,"42.954099,0.537887",FR, Ferrere
26673,,47.74142,16.65674,Fertőrákos,,"47.74142,16.65674",AT, Mörbisch am See
36990,,37.038849,14.381527,"Feudo Nobile, Gela",462206,"37.038849,14.381527",IT, 
36646,Aphrodite,34.987813,33.191067,Filani-Petaloudia,707472,"34.987813,33.191067",CY, 
22754,Philia,39.261599,22.050597,Filia,540677,"39.261599,22.050597",GR, 
36991,,37.20907,14.17717,"Fiume di Mallo, Butera",462207,"37.20907,14.17717",IT, 
20881,,50.426894,3.182975,Flines-lez-Raches,,"50.426894,3.182975",FR, Flines-lez-Raches
37086,Nemus Sorabense/Sorabile,40.121856,9.253671,Fonni,471978,"40.121856,9.253671",IT, Fonni
36992,,37.19877,14.20075,Fontana Calda di Butera,462209,"37.19877,14.20075",IT, 
18159,,44.738972,3.386696,Fontans,167768,"44.738972,3.386696",FR, Fontans
36731,,41.98852,14.54177,"Fonte di San Nicola, San Buono",433083,"41.98852,14.54177",IT, 
36726,,41.84252,14.3285,"Fonte Romito, Capracotta",432838,"41.84252,14.3285",IT, 
26571,,42.23027,13.60588,Fontecchio,413141,"42.23027,13.60588",IT, Fontecchio
18751,,49.2421087,2.6253547,Forêt d'Halatte,335533616,"49.2421087,2.6253547",FR, Ognon
26352,,47.59901,10.74347,"Forggensee, Schwangau",187384,"47.59901,10.74347",DE, Schwangau
39105,,51.183834,6.717542,"Fossa Sanguinis, Neuss-Gnadental",,"51.183834,6.717542",DE, Neuss
17457,,47.10227,-0.08869,"Fourneaux, Montreuil-Bellay",138471,"47.10227,-0.08869",FR, Montreuil-Bellay
18059,,43.586542,6.101908,Fox-Amphoux,157855,"43.586542,6.101908",FR, Fox-Amphoux
20870,,50.04549,5.74944,Foy,,"50.04549,5.74944",BE, Bastogne
36997,,38.8243,-9.47159,Foz de Colares,256172,"38.8243,-9.47159",PT, Colares
38727,,47.499515248,7.676591996,Frenkendorf,,"47.499515248,7.676591996",CH, Frenkendorf
25595,,51.663235,-1.366984,Frilford,79470,"51.663235,-1.366984",GB, Frilford
37138,,33.87479,35.94355,Furzol,678135,"33.87479,35.94355",LB, 
36923,Meter Theon 2,39.352655,30.359665,"Göçen Çeşme, Yeniköy",609469,"39.352655,30.359665",TR, 
19194,,50.4822819,6.6182597,Görresburg,109013,"50.4822819,6.6182597",DE, Nettersheim
21290,,46.7939959,12.8749766,Görtschach,187395,"46.7939959,12.8749766",AT, Görtschach
21474,Panionion,37.703924,27.329993,Güzelçamlı,599855,"37.703924,27.329993",TR, 
22310,,30.1939957,53.1671255,"Gabr-i Mader-i Soleiman, Pasargad",922647,"30.1939957,53.1671255",IR, Pasargad
17591,,44.544795,3.372998,Gabrias,167777,"44.544795,3.372998",FR, Gabrias
37071,,36.522246,43.454928,Gali Zardak,874474,"36.522246,43.454928",IQ, 
1706,,49.269,1.6141,Gamaches-en-Vexin,108999,"49.269,1.6141",FR, Gamaches-en-Vexin
37189,,34.75628,48.43828,Ganj Nameh,903032,"34.75628,48.43828",IR, 
36950,,32.169374,13.017562,Garian,344361,"32.169374,13.017562",LY, Garyan
43011,,40.1124645,44.7301689,Garni Temple,,"40.1124645,44.7301689",AM, Garni
36577,,32.566261,22.602681,Gasr ar-Rakam,373794,"32.566261,22.602681",LY, 
36578,,32.582681,22.547967,Gasr Bu Zayd,373797,"32.582681,22.547967",LY, 
36951,,32.483315,13.699995,Gasr Doga,344364,"32.483315,13.699995",LY, 
36952,,32.026267,12.436781,Gasr el-Gezira,344365,"32.026267,12.436781",LY, Yefren
36579,,32.624289,22.827284,Gasr Zeitun,373816,"32.624289,22.827284",LY, 
36619,Phasiane Theos,42.179957,41.64496,GEO,857274,"42.179957,41.64496",GE, Poti
38712,,47.8735854,14.1380837,"Georgenberg, Micheldorf in Oberösterreich",,"47.8735854,14.1380837",AT, Hinterburg
36953,,32.849922,13.074156,Geran,344371,"32.849922,13.074156",LY, Tripoli
36617,Men Karou,37.915011,28.941208,Gereli,638994,"37.915011,28.941208",TR, 
36690,Tallaion Antron,35.382882,24.735325,"Gerontospilios, Melidoni",590070,"35.382882,24.735325",GR, 
36671,,32.23137,23.28227,Geziret el Marakeb,716560,"32.23137,23.28227",LY, 
36913,,38.233389,30.885211,Ghaziri,609389,"38.233389,30.885211",TR, 
36558,,36.156256,3.587424,Ghorfa des Ouled Meriem,295265,"36.156256,3.587424",DZ, Dechmia
36559,,36.12011,3.774913,Ghorfa des Ouled Selama,295266,"36.12011,3.774913",DZ, El Hakimia
37119,,35.728575,65.389205,Ghulbiyan,961910,"35.728575,65.389205",AF, 
36954,,31.950027,12.016701,Giado,344378,"31.950027,12.016701",LY, Jadu
37190,,34.14105,45.92005,Gilan Gharbi,903034,"34.14105,45.92005",IR, Gilan Gharb
18144,,49.001017,1.229625,"Gisacum, Le Vieil-Évreux",109007,"49.001017,1.229625",FR, Le Vieil-Évreux
36620,,43.092008,24.150619,Glava Panega,216823,"43.092008,24.150619",BG, Zlatna Panega
44461,,47.81206,13.07418,Gnigl,,"47.81206,13.07418",AT, Salzburg
39460,,47.78952,-2.74002,"Goh Ilis, Plaudren",,"47.78952,-2.74002",FR, Plaudren
24891,,51.86686,0.856729,Gosbecks,,"51.86686,0.856729",GB, 
36652,Apollo,34.973899,33.528885,Goshi,707481,"34.973899,33.528885",CY, Kochi
42728,,46.773017,15.527745,"Gräberfeld und Heiligtum, Frauenberg, Seggauberg",,"46.773017,15.527745",AT, Seggauberg
20849,,49.9456545924,7.0587673005,Graach,,"49.9456545924,7.0587673005",DE, Graach an der Mosel
7783,Grannum?/Andesina?,48.3843,5.48654,Grand,109016,"48.3843,5.48654",FR, Grand
36571,Fines Africae et Cyrenensium,30.279406,18.805925,Graret Gser et-Trab,363962,"30.279406,18.805925",LY, Ajdabiya
36993,,37.59868,13.09696,"Grattavole, Sciacca",462222,"37.59868,13.09696",IT, 
20834,,50.1412962824,6.6316555061,"Grindelborn, Mürlenbach",,"50.1412962824,6.6316555061",DE, Mürlenbach
40475,,47.362913,8.542964,Grosser Hafner,,"47.362913,8.542964",CH, Zürich
41386,,40.8349539,14.0766539,"Grotta della Sibilla, Pozzuoli",94135344,"40.8349539,14.0766539",IT, 
36994,,38.21125,13.32888,"Grotta Regina, Mondello, Palermo",462223,"38.21125,13.32888",IT, Palermo
20874,,50.809025,5.887792,Gulpen,,"50.809025,5.887792",NL, Gulpen
37099,,29.217325,51.633061,Gur-i Dukhtar,922652,"29.217325,51.633061",IR, 
37100,,29.779161,51.614238,Gur-i Shapur,922653,"29.779161,51.614238",IR, 
36621,,44.48143,28.525035,"Gura Dobrogei, Cogealac",216828,"44.48143,28.525035",RO, Gura Dobrogei
36623,,44.552758,34.287505,Gurzuf,226614,"44.552758,34.287505",,
20716,,49.6424974773,6.925346862,Gusenburg,,"49.6424974773,6.925346862",DE, Hermeskeil
37101,,29.851062,52.323731,Guyum,922654,"29.851062,52.323731",IR, Ghalat
44420,,51.722088,-2.9235704,"Gwehelog Fawr, Monmouthshire",,"51.722088,-2.9235704",GB, 
36703,Demeter,37.02894,25.43123,"Gyroulas, Naxos",599631,"37.02894,25.43123",GR, 
17291,,47.1314125,9.0997574,"Hüttenböschen, Mollis",187479,"47.1314125,9.0997574",CH, Mollis
37102,,29.976348,52.926209,Hajjiabad,922656,"29.976348,52.926209",IR, 
20491,,49.2224901,7.0278695,"Halberg, Saarbrücken",,"49.2224901,7.0278695",DE, Saarbrücken
36605,,41.167467,34.675441,Hambarkaya,844942,"41.167467,34.675441",TR, 
36606,,41.411205,35.034216,Hambarkaya,844943,"41.411205,35.034216",TR, 
44515,,33.27499,35.72785,Har Senaim,,"33.27499,35.72785",,
25533,,51.790189,0.127079,Harlow,79502,"51.790189,0.127079",GB, Harlow
37140,,33.448933,36.52955,Harran el-Awamid,678174,"33.448933,36.52955",SY, 
25690,,50.821927,-0.972537,Hayling Island,79504,"50.821927,-0.972537",GB, 
2202,,49.8997477946,6.7879379875,Heckenmünster,109034,"49.8997477946,6.7879379875",DE, Heckenmünster
39110,,51.134045,4.4728,Heiligdom Kontich,,"51.134045,4.4728",BE, Kontich
19256,,50.0012733,8.2679999,"Heiligtum der Isis und Mater Magna, Mainz",109133,"50.0012733,8.2679999",DE, MZ
42512,,25.723889,30.553056,"Heiligtum des Piyris, Ain Labakha",,"25.723889,30.553056",EG, 
22838,Musae Heliconiae,38.320612,23.073483,Helicon Muses,540951,"38.320612,23.073483",GR, 
36955,,33.449969,9.92346,Henchir Krebita,344399,"33.449969,9.92346",TN, 
36956,,33.442268,9.939834,Henchir Oum el-Abbas,344402,"33.442268,9.939834",TN, 
37055,,34.787805,7.700661,Henchir Oum Iala,334559,"34.787805,7.700661",DZ, 
36957,,32.694119,10.546537,Henchir Snem,344405,"32.694119,10.546537",TN, 
25616,,51.383098,-2.802202,Henley Wood,79507,"51.383098,-2.802202",GB, 
21195,Heraion,37.67175,26.885663,Heraion,599641,"37.67175,26.885663",GR, 
22270,Heraion,38.028187,22.8522,Heraion,570288,"38.028187,22.8522",GR, 
22613,Heraion Argolis/Heraion,37.691944,22.774722,Heraion (Argolis),570289,"37.691944,22.774722",GR, 
23682,Hera,40.4885563,14.9697958,"Heraion alla foce del Sele, Capaccio",442610,"40.4885563,14.9697958",IT, 
37122,,34.36432,36.41586,Hermel,668264,"34.36432,36.41586",LB, 
37141,,33.368295,35.697434,Hibbariye,678182,"33.368295,35.697434",LB, 
20718,,50.2307861434,6.7691867025,Hinterweiler,,"50.2307861434,6.7691867025",DE, Hinterweiler
20850,,49.6639695194,6.7218290602,Hinzenburg,,"49.6639695194,6.7218290602",DE, Hinzenburg
20832,,49.8552303993,7.1658439677,Hinzerath,,"49.8552303993,7.1658439677",DE, Morbach
17774,,49.864326,7.232994,"Hochscheid, Sirona-Tempel",109046,"49.864326,7.232994",DE, Hochscheid
37063,,47.0823314,12.8420345,Hochtor,187410,"47.0823314,12.8420345",AT, 
25656,,52.471413,0.482832,"Hockwold, Hockwold Cum Wilton",79516,"52.471413,0.482832",GB, Hockwold cum Wilton
26780,,46.746389,14.296944,"Hohenstein, Liebenfels",,"46.746389,14.296944",AT, Hohenstein
20880,,51.396699,5.268429,Hoogeloon,,"51.396699,5.268429",NL, Hoogeloon
20719,,50.2488259616,6.946228387,Horperath,,"50.2488259616,6.946228387",DE, Horperath
20851,,50.2395067112,6.954566655,"Horperath, Bergheiligtum auf dem Kaselberg",,"50.2395067112,6.954566655",DE, Horperath
36864,Asbamaion,37.800047,34.63158,Hortasan Gölü,648573,"37.800047,34.63158",TR, 
21724,Baitokaike,34.93071,36.24532,Hosn Suleiman,668205,"34.93071,36.24532",SY, Dwair Reslan
36566,,31.927134,49.843134,"Hung-i Azdar, Hung-i Nauruzi",912863,"31.927134,49.843134",IR, 
36565,,31.944854,49.801998,Hung-i Kamalvand,912862,"31.944854,49.801998",IR, 
36567,,31.932829,49.81782,Hung-i Yar-i 'Alivand,912864,"31.932829,49.81782",IR, 
37142,,33.907292,35.94873,Husn Niha,678192,"33.907292,35.94873",LB, 
26184,,34.40139,36.059253,Husn Sfiri,668267,"34.40139,36.059253",LB, 
36705,,37.07754,25.38071,Hyria,599661,"37.07754,25.38071",GR, 
45548,,45.46657,22.22122,"Iaz, Caransebeş",,"45.46657,22.22122",RO, 
36685,Idaion Antron,35.2082103,24.8289925,Idaion Antron,589817,"35.2082103,24.8289925",GR, 
37165,,41.994283,12.492366,Il Torraccio,423092,"41.994283,12.492366",IT, Roma
37166,,41.826718,12.578755,Il Torraccio,423093,"41.826718,12.578755",IT, Roma
36560,,36.65063,4.211769,Imainserène,295278,"36.65063,4.211769",DZ, Larbaâ Nath Irathen
36592,Zeus Antigonios,38.981673,28.612245,Imrenler,550956,"38.981673,28.612245",TR, 
36863,Fanum Carisi,40.411572,9.631578,Irgoli,471922,"40.411572,9.631578",IT, Irgoli
36561,,36.654721,4.192352,Iril Oumaali,295282,"36.654721,4.192352",DZ, Larbaâ Nath Irathen
42543,,27.247074,33.297223,Isis-Tempel,,"27.247074,33.297223",EG, 
43056,,40.1764984,22.4955445,"Isis, Dion",,"40.1764984,22.4955445",GR, 
37064,Diomedeae Inss.,42.392684,16.259847,island-group,197248,"42.392684,16.259847",HR, Palagruža
25094,,41.77283,12.25527,Isola Sacra - Temple of Isis and cistern,,"41.77283,12.25527",IT, Fiumicino
41914,,41.696925,13.024731,"Iuno Moneta, Segni",,"41.696925,13.024731",IT, Segni
44513,,33.593066,35.885253,"Jebel Kassir, Mdoukha",,"33.593066,35.885253",LB, 
36679,,28.704863,33.635781,Jebel Moneijah,746751,"28.704863,33.635781",EG, 
22074,,36.599168,9.863056,Jebel Moraba,208942158,"36.599168,9.863056",TN, 
25704,,50.637547,-2.427116,Jordan Hill,79540,"50.637547,-2.427116",GB, Weymouth
36551,,35.561466,-5.845549,Jouima,275647,"35.561466,-5.845549",MA, 
19483,,50.2307443786,6.6747870451,"Judenkirchhof, Pelm",109244,"50.2307443786,6.6747870451",DE, Gerolstein
3650,,48.24458,0.12194,Juillé,,"48.24458,0.12194",FR, Juillé
36937,Zeus Melenos,39.648797,30.659554,Kıravdan,609587,"39.648797,30.659554",TR, 
36928,"Zeus Bennios, Soter",38.949541,30.059883,Kırkpınar,609577,"38.949541,30.059883",TR, 
36912,Cybele,39.109037,30.426741,"Kızılkaya, Üçlerkayası",609354,"39.109037,30.426741",TR, 
36940,Zeus Sabazios,38.985349,28.855685,Küpüler/Elek,609590,"38.985349,28.855685",TR, 
21974,Kabeirion,38.318092,23.255096,Kabeirion,540844,"38.318092,23.255096",GR, 
36663,Nymphaion,35.130441,33.415773,Kafizin CYX,707590,"35.130441,33.415773",CY, Atalassa
36637,,33.787993,35.987778,Kafr Zabad,678343,"33.787993,35.987778",LB, 
36568,,30.707126,50.137002,Kai Ka'us,912875,"30.707126,50.137002",IR, 
36654,Athena,34.983613,32.89886,Kakopetria-Agelades,707488,"34.983613,32.89886",CY, Kakopetria
36915,,39.534331,30.42012,Kalabak,609422,"39.534331,30.42012",TR, 
23111,Artemis Elaphebolia,38.6367847,22.8955335,Kalapodi,540665,"38.6367847,22.8955335",GR, 
36608,,41.56281,34.073832,Kalekapı,844960,"41.56281,34.073832",TR, 
37008,,37.71413,20.991872,Kalogeros,530915,"37.71413,20.991872",GR, 
36868,,36.35271,36.93642,Kalota,658492,"36.35271,36.93642",SY, 
36599,Eleusinion,37.011458,22.420186,Kalyria Sochous,570216,"37.011458,22.420186",GR, 
36781,Antron Kybeles/Mithra,39.16467,27.150037,Kapıkaya,550437,"39.16467,27.150037",TR, 
36657,,34.841422,33.262499,Kapsalaes,707524,"34.841422,33.262499",CY, Vavla
37180,,36.266666,46.849999,Karaftu,884168,"36.266666,46.849999",IR, 
37005,Hipposthenis Monu.,41.024571,28.974272,Karaköy,523981,"41.024571,28.974272",TR, 
36869,,37.8693,38.58782,Karakuş,658501,"37.8693,38.58782",TR, 
36917,Men Askaenos,38.289695,31.233156,Karakuyu,609462,"38.289695,31.233156",TR, 
21108,,25.7191736,32.6566111,Karnak,786050,"25.7191736,32.6566111",EG, 
36691,Theai kai Nymphai,35.418498,26.995614,Karpathos,590075,"35.418498,26.995614",GR, 
21409,,42.00333,25.502729,"Kasnakovo, Dimitrovgrad",216862,"42.00333,25.502729",BG, Kasnakovo
36774,Ptoios,38.459,23.251,Kastraki,541078,"38.459,23.251",GR, 
36769,Kyrtones?,38.585688,23.044957,Kastron Kolakas/Karaouli,540898,"38.585688,23.044957",GR, 
36587,Phanai,38.216436,25.920451,"Kato Phana, Khios",550819,"38.216436,25.920451",GR, 
36698,Artemis Tauropolos,37.62208,26.05971,"Kato Raches, Ikaria",599524,"37.62208,26.05971",GR, Kato Raches
36773,Phokikon,38.485096,22.760566,Kato Tseresi,541051,"38.485096,22.760566",GR, 
36756,Archegetes,38.499295,22.741267,Kato Tseresi/Marmaria/Kastrouli,540657,"38.499295,22.741267",GR, 
20871,,50.6031277,6.687189,"Katzvey, Mechernich",,"50.6031277,6.687189",DE, Mechernich
37103,,29.618332,51.658333,Kazerun,922666,"29.618332,51.658333",IR, Kazerun
37118,,37.504626,56.347198,Kelisaye Espakho,952084,"37.504626,56.347198",IR, 
36759,Asklepios,38.39434,21.83862,Kephalovrysi,540669,"38.39434,21.83862",GR, Nafpaktos
36921,Meter Steunene,39.175719,29.576517,Kesik Mağara,609467,"39.175719,29.576517",TR, 
36569,,30.499441,50.465353,Khayrabad Bala,912882,"30.499441,50.465353",IR, 
37123,,34.967607,37.6605785,Khirbet el-Bilaas,668285,"34.967607,37.6605785",SY, 
37143,,33.582734,35.921688,Khirbet el-Knese,678242,"33.582734,35.921688",LB, 
22175,,30.907378,35.702957,Khirbet et-Tannur,697687,"30.907378,35.702957",JO, 
37124,,34.943692,37.99798,Khirbet Semrin,668287,"34.943692,37.99798",SY, 
36712,Kabeireion,39.978822,25.341457,"Khloe, Lemnos",550604,"39.978822,25.341457",GR, 
36699,Artemision,37.388532,25.25009,"Khomatovouni, Rheneia",599525,"37.388532,25.25009",GR, 
36765,,39.176667,23.624204,Khondro Teikhos,540865,"39.176667,23.624204",GR, 
36713,,39.145427,26.099211,Khontro Bigli,550638,"39.145427,26.099211",GR, 
37009,,38.715787,20.603485,Khortata,530945,"38.715787,20.603485",GR, Chortata
36695,Apollo,36.96543,26.95007,Khristos Ierusalem,599507,"36.96543,26.95007",GR, Chorio
36706,,37.638818,26.50031,Khrysomilia,599713,"37.638818,26.50031",GR, Kampi Chrisomilias
37191,,33.867479,51.592609,Khurramdasht,903065,"33.867479,51.592609",IR, 
36920,Meter Phileis,38.388891,28.613595,Killik,609466,"38.388891,28.613595",TR, 
39547,Poseidon/Amphitrite,37.5519437,25.1423406,"Kionia, Tinos",590006,"37.5519437,25.1423406",GR, Kionia
37051,,40.907437,24.218925,Kipia,501464,"40.907437,24.218925",GR, 
37104,,28.78026,52.827896,Kiratah,922668,"28.78026,52.827896",IR, 
21476,Klaros/Claros,38.00466,27.19292,Klaros,599719,"38.00466,27.19292",TR, 
20852,,49.8991669109,6.8778124421,"Klausen, Krames",,"49.8991669109,6.8778124421",DE, Klausen
42507,,25.471944,30.559444,"Kleine römische Tempel, Nadura",,"25.471944,30.559444",EG, 
36916,,39.284283,30.023733,Koçak,609439,"39.284283,30.023733",TR, 
36890,,23.42629,32.90729,Kobosh,795825,"23.42629,32.90729",EG, 
36562,,36.814389,3.816335,Kobr Roumia,295293,"36.814389,3.816335",DZ, Ouled Aissa
36711,Herakles,39.903351,25.309652,Kome,550572,"39.903351,25.309652",GR, 
36658,,34.685125,33.011587,Komissariato,707542,"34.685125,33.011587",CY, Binatlı
36612,,45.335039,37.129524,Komosarue,854698,"45.335039,37.129524",RU, Akhtanizovskaya
44375,Aphrodite Erykine,37.8179,21.93,Kondovazaina,,"37.8179,21.93",GR, 
37015,*Karistoron,42.330809,22.700035,Kopilovci,481874,"42.330809,22.700035",BG, Nikolichevtsi
20821,Varnenum,50.729757,6.193621,Kornelimünster,109411,"50.729757,6.193621",DE, AC
36749,Apollo,39.303494,23.122138,Korope,540649,"39.303494,23.122138",GR, Kala Nera
44509,,33.35,35.966667,"Korsei el-Debb, Kafr Hawr",,"33.35,35.966667",SY, 
36702,Eleusinioi Theoi,36.843773,27.179789,Kos,599606,"36.843773,27.179789",GR, 
36554,,35.65983,1.817621,Koudiat M'rakab,285470,"35.65983,1.817621",DZ, 
45301,,39.608221,22.228689,Koutsochero,,"39.608221,22.228689",GR, 
36618,Roma et Augustus,37.520416,30.138833,Kozluca,639083,"37.520416,30.138833",TR, 
44592,"Hermes, Aphrodite",35.0559606,25.4998661,"Krya Vrysi, Kato Symi",,"35.0559606,25.4998661",GR, 
37056,,35.281593,7.284165,Ksar Djaria,334566,"35.281593,7.284165",DZ, 
42319,,47.2257679,15.3366393,"Kugelberg, Frohnleiten",,"47.2257679,15.3366393",AT, Frohnleiten
37105,,29.981808,52.666503,Kuh-i Ayyub,922669,"29.981808,52.666503",IR, Faloonak
37106,,30.14414,52.532666,Kuh-i Shahrak,922670,"30.14414,52.532666",IR, 
39148,,48.548004,10.290641,"Kultbezirk, Sontheim",,"48.548004,10.290641",DE, Sontheim an der Brenz
37107,,28.667917,52.371605,Kunar Siah,922671,"28.667917,52.371605",IR, 
37184,,35.806245,44.96205,Kurh u kich,894029,"35.806245,44.96205",IQ, 
37192,,33.189073,46.515468,Kushk Khainfar,903070,"33.189073,46.515468",IR, 
37002,Aigaionos Monu.,40.348523,28.393852,Kuzgun Bayir?,511140,"40.348523,28.393852",TR, 
21906,Isthmia,37.91524,22.99633,Kyra Vrisi,570316,"37.91524,22.99633",GR, Kiras Vrisi
36747,Aphrodite Phystiou,38.629,21.588,Kyron-Neron/Ag. Triada,540646,"38.629,21.588",GR, 
18261,,43.93988,4.48777,"L'Ermitage, Notre-Dame-de-Laval",148143,"43.93988,4.48777",FR, Collias
17331,,45.479594,5.765232,La Bauche,167669,"45.479594,5.765232",FR, La Bauche
45117,,48.96688,2.90143,"La Bauve, Meaux",,"48.96688,2.90143",FR, Meaux
20895,,48.714228,1.984448,"La Butte Ronde, Saint-Forget",,"48.714228,1.984448",FR, Saint-Forget
17301,,46.001377,6.121991,La Caille,167635,"46.001377,6.121991",FR, Allonzier-la-Caille
18240,,43.061896,6.148673,La Capte,157797,"43.061896,6.148673",FR, Hyères
37151,,41.95212,12.55171,"La Cecchina, Roma",422887,"41.95212,12.55171",IT, 
20751,,45.447237,3.097136,La Chapelle-Marcousse,,"45.447237,3.097136",FR, La Chapelle-Marcousse
25839,,43.020212,13.581033,"La Cuma, Monte Rinaldo",413109,"43.020212,13.581033",IT, 
45264,,38.122935,-0.672156,"La Escuera, San Fulgencio (Alicante)",,"38.122935,-0.672156",ES, San Fulgencio
20138,,44.323769,2.974903,"La Fageole, Recoules-Prévinquières",,"44.323769,2.974903",FR, Recoules-Prévinquières
21014,,48.43333,3.31667,"La Ferme d'Isle, Grisy-sur-Seine",,"48.43333,3.31667",FR, Grisy-sur-Seine
20737,,47.9989683,-0.7058224,"La Furetière, Entrammes",,"47.9989683,-0.7058224",FR, Entrammes
45698,,43.479476,-5.226767,"La Isla, Colunga",,"43.479476,-5.226767",ES, Colunga
18034,,44.948014,5.718745,La Motte-Saint-Martin,167846,"44.948014,5.718745",FR, La Motte-Saint-Martin
39399,,44.586463,-0.029494,La Réole,,"44.586463,-0.029494",FR, La Réole
44458,,50.400867,4.575076,"La Taille Marie, Aiseau",,"50.400867,4.575076",BE, Aiseau-Presles
20733,,47.831682,-0.353501,"La Tour, Sablé-sur-Sarthe",,"47.831682,-0.353501",FR, Sablé-sur-Sarthe
20622,,46.9038227,2.5483549,"La Touratte, Dun-sur-Auron",,"46.9038227,2.5483549",FR, Dun-sur-Auron
22650,Labraunda/Labranda,37.418971,27.819967,"Labraunda, Ortaköy, Muğla",599745,"37.418971,27.819967",TR, 
39331,,46.415449,5.752648,"Lac-d'Antre, Villards-d'Héria",,"46.415449,5.752648",FR, Villards-d'Héria
18049,,44.231758,5.638055,Lachau,148104,"44.231758,5.638055",FR, Lachau
26551,,43.87362,11.69661,"Lago degli Idoli, Monte Falterona, Stia",413079,"43.87362,11.69661",IT, 
25618,,51.123942,-2.473627,"Lamyatt Beacon, Lamyat",79554,"51.123942,-2.473627",GB, 
20853,,50.0056378739,6.7401202617,Landscheid,,"50.0056378739,6.7401202617",DE, Landscheid
36659,,34.577225,32.996144,Laneia,707554,"34.577225,32.996144",CY, Akrotiri
37193,,34.52229,51.000769,Lang-i Rud,903072,"34.52229,51.000769",IR, 
17549,,44.500731,3.571598,Lanuéjols,167801,"44.500731,3.571598",FR, Lanuéjols
18212,,44.130809,3.383538,Lanuéjols,148106,"44.130809,3.383538",FR, Lanuéjols
20114,,43.9956249,3.098039,Lapanouse-de-Cernon,,"43.9956249,3.098039",FR, Lapanouse-de-Cernon
22273,,38.372142,21.530175,Laphrion,,"38.372142,21.530175",GR, 
39133,,48.970776,9.286698,"Lapidarium, Steinheim/Murr",,"48.970776,9.286698",DE, Steinheim an der Murr
20755,,45.709772,2.567631,Lastic,,"45.709772,2.567631",FR, Lastic
36660,,35.127665,32.790763,Laxia tis Skhistis,707557,"35.127665,32.790763",,
39459,,46.8709904,5.7484817,"Le Bioulet, Pupillin",,"46.8709904,5.7484817",FR, Pupillin
17698,,44.890266,3.790115,Le Bouchet-Saint-Nicolas,167682,"44.890266,3.790115",FR, Le Bouchet-Saint-Nicolas
17408,,49.656014,2.3663599,"Le Catillon, Rouvroy-les-Merles",109289,"49.656014,2.3663599",FR, Rouvroy-les-Merles
19340,,43.974459,2.987631,"Le Combalou, Roquefort-sur-Soulzon",,"43.974459,2.987631",FR, Roquefort-sur-Soulzon
15774,,48.5125272,7.1644208,Le Donon,,"48.5125272,7.1644208",FR, Grandfontaine
42228,,49.88708,2.702699,"Le Fief du Bac, Proyart",,"49.88708,2.702699",FR, Proyart
17004,,47.65877,6.86604,"Le Martinet, Offemont",,"47.65877,6.86604",FR, Offemont
16985,,45.574983,2.809278,Le Mont-Dore,,"45.574983,2.809278",FR, Le Mont-Dore
17409,,49.854813,2.100046,"Le Moulin, Fluy",108987,"49.854813,2.100046",FR, Fluy
39457,,47.84551,-2.09984,"Le Mur, Comblessac",,"47.84551,-2.09984",FR, Comblessac
26346,,49.239776,-2.250108,Le Pinnacle,69551,"49.239776,-2.250108",JE, 
26624,,50.03359,1.87157,"Le Rideau/Les Brimeux, Bailleul",,"50.03359,1.87157",FR, Bailleul
42516,,25.6014,30.728178,"Lehmziegeltempel, Deir el-Munira",,"25.6014,30.728178",EG, 
21294,,46.831476,13.421322,Lendorf,187451,"46.831476,13.421322",AT, Lendorf
17569,,45.818962,4.662736,Lentilly,167807,"45.818962,4.662736",FR, Lentilly
19475,,49.749972706,6.6137112662,"Lenus Mars, Am Irminenwingert, Trier",,"49.749972706,6.6137112662",DE, TR
36687,,35.589599,24.107734,"Lera, Stavros",589904,"35.589599,24.107734",GR, 
18143,,49.1885,1.60415,"Les Bois des Fours à Chaux, Bû",108833,"49.1885,1.60415",FR, Fours-en-Vexin
44406,,48.65617,6.21522,Les Cinq Fontaines,,"48.65617,6.21522",FR, Laneuveville-devant-Nancy
17579,,47.964176,5.222123,"Les Clairs Chênes, Faverolles",177521,"47.964176,5.222123",FR, Faverolles
18110,,46.658886,-1.571227,Les Courents,138315,"46.658886,-1.571227",FR, Landeronde
39385,,49.345841,1.021004,"Les Essarts, Grand-Couronne",,"49.345841,1.021004",FR, Grand-Couronne
20624,,46.813337,2.411545,"Les Fons Clairins, Uzay-le-Venon",,"46.813337,2.411545",FR, Uzay-le-Venon
39451,,48.54916,3.606658,"Les Grèves, La Villeneuve-au-Châtelot",,"48.54916,3.606658",FR, La Villeneuve-au-Châtelot
26626,,50.13252,2.34789,"Les Huit Journaux, Beauval",,"50.13252,2.34789",FR, Beauval
18162,,45.49345,1.876713,"Les Jaillants, Pradines",138655,"45.49345,1.876713",FR, Pradines
20727,,46.598854,1.516462,"Les Mersans, Saint-Marcel",,"46.598854,1.516462",FR, Saint-Marcel
18132,,49.5646384113,1.8354759099,"Les Muguets, Songeons",109349,"49.5646384113,1.8354759099",FR, Songeons
39455,,49.24691,1.12958,"Les Régales, Louviers",,"49.24691,1.12958",FR, Louviers
18140,,49.133663,2.085254,"Les Terres Noires, Épiais-Rhus",108962,"49.133663,2.085254",FR, Épiais-Rhus
18747,,49.120178,1.771454,"Les Vaux de la Celle, Genainville",109004,"49.120178,1.771454",FR, Genainville
21461,Letoon,36.331944,29.289722,Letoon,638958,"36.331944,29.289722",TR, 
44512,,33.4825,35.723889,Libbaya,,"33.4825,35.723889",LB, 
36738,,41.567519,15.009553,Lincietti,442638,"41.567519,15.009553",IT, 
20877,,51.82029,5.407505,Lith,,"51.82029,5.407505",NL, Lith
37172,,41.698769,2.847575,Lloret de Mar,246472,"41.698769,2.847575",ES, Lloret de Mar
37175,,42.2952,-1.2658,"Los Atilios, Sádaba",246598,"42.2952,-1.2658",ES, Sádaba
36550,Fortuna,38.20965,-1.11363,Los Baños,265899,"38.20965,-1.11363",ES, Los Baños de Fortuna
36995,,38.43266,-6.59005,Los Cuadriales,256139,"38.43266,-6.59005",ES, Burguillos del Cerro
40178,,41.62333,-4.16962,"Los Hoyos, Padilla de Duero",,"41.62333,-4.16962",ES, Peñafiel
18500,,44.043569,1.894544,Loubers,246285,"44.043569,1.894544",FR, Loubers
24867,Lousoi,37.9719,22.1121,Lousiko/Chamakou,570438,"37.9719,22.1121",GR, 
39559,,46.634307079,6.431751201,Lucherans,,"46.634307079,6.431751201",CH, Cuarnens
25608,,51.721465,-2.557442,Lydney,79583,"51.721465,-2.557442",GB, 
44341,,37.507,22.168,Lykochia,,"37.507,22.168",GR, 
18163,*Licontio/*Ligontio,49.398113,1.467159,Lyons-la-Forêt,109128,"49.398113,1.467159",FR, Lyons-la-Forêt
1223,,49.8274734998,6.589434132,Möhn,109170,"49.8274734998,6.589434132",DE, Kordel
17479,,44.056192,0.25648,Mézin,246500,"44.056192,0.25648",FR, Mezin
20854,,50.1577738896,6.6528607282,Mürlenbach,,"50.1577738896,6.6528607282",DE, Mürlenbach
26485,,41.234067,15.003939,"Macchia Porcara, Casalbore",442531,"41.234067,15.003939",IT, Casalbore
42340,,40.82616,14.12047,Macellum Tempio di Serapide,,"40.82616,14.12047",IT, Pozzuoli
4663,,48.924022,7.17889,Mackwiller,,"48.924022,7.17889",FR, Mackwiller
36861,Plemmyrion,37.02503,15.31546,"Maddalena, Siracusa",462451,"37.02503,15.31546",IT, 
26461,,41.677979,13.908213,"Madonnna di Canneto, Settefrati",432920,"41.677979,13.908213",IT, 
36908,Apollo Lairmenos,38.224614,29.314553,Maeander fl.,609312,"38.224614,29.314553",TR, 
37153,Dea Dia,41.83614,12.44195,"Magliana, Roma",422916,"41.83614,12.44195",IT, Roma
37010,,38.899239,20.916795,Magoula,530988,"38.899239,20.916795",GR, 
36770,,39.740123,22.363387,Magoula Kastri,540924,"39.740123,22.363387",GR, Ampelonas
36754,Apollo Tegyraios,38.517762,23.025796,Magoula Pirgou,540654,"38.517762,23.025796",GR, 
36763,Iton?,39.164654,22.71106,Magoula Zirilia,540842,"39.164654,22.71106",GR, 
38834,,47.59439226,7.680939516,"Maienbühl, Riehen",,"47.59439226,7.680939516",DE, Inzlingen
37194,,33.175424,46.945497,Maimeh,903076,"33.175424,46.945497",IR, 
39300,,43.8382847,4.3560109,"Maison Carrée, Nîmes",,"43.8382847,4.3560109",FR, Nîmes
37128,,34.44483,36.05606,Makam er-Rab,668343,"34.44483,36.05606",LB, 
36775,Pyra,38.752,22.299,Makrorrakhi,541080,"38.752,22.299",GR, 
23119,Athena Itonia,38.388908,23.004784,Mamoura,540678,"38.388908,23.004784",GR, 
36716,Meter Theon,38.917185,27.428819,Mamurt Kale,550737,"38.917185,27.428819",TR, 
36856,,37.76113,13.03739,"Mandra di Mezzo, Poggioreale",462297,"37.76113,13.03739",IT, 
36714,,39.051285,26.437616,Manna,550719,"39.051285,26.437616",GR, 
37125,,34.611077,36.292737,Maqam er-Rab,668304,"34.611077,36.292737",LB, 
37108,,29.804928,52.981765,Maqsudabad,922676,"29.804928,52.981765",IR, 
37006,Ag. Ioannis Rodakis,38.6454,20.6469,"Marantochori, Lefkada",530776,"38.6454,20.6469",GR, 
36857,,37.17935,14.25053,"Marcato, Butera",462299,"37.17935,14.25053",IT, 
39384,,49.33865949,1.04986873,"Mare-du-Puits, Oissel",,"49.33865949,1.04986873",FR, Oissel
16974,,45.45082,2.42623,Margerides,138447,"45.45082,2.42623",FR, Margerides
36635,,33.646317,35.481243,Marjiat,678283,"33.646317,35.481243",LB, 
36771,,38.974607,24.484265,Markesi,540934,"38.974607,24.484265",GR, 
17638,,46.399223,0.972994,"Masamas, Saint-Léomer",138451,"46.399223,0.972994",FR, Saint-Léomer
37126,,34.09021,35.77034,Mashnaqa,668311,"34.09021,35.77034",LB, 
36570,,31.98374,49.28161,Masjid-i Suleiman,912906,"31.98374,49.28161",IR, Masjed Soleyman
36733,Sirenae,40.603887,14.335469,Massa Lubrense,433123,"40.603887,14.335469",IT, Annunziata
41676,,39.375115,8.699073,"Matzanni, Domusnovas",,"39.375115,8.699073",IT, 
43123,,36.35285,9.62625,"Mausolée de Caïus Iulius Augustus Felix, Bou Arada",,"36.35285,9.62625",TN, Quballat
23842,,41.8550631,12.5181785,"Mausoleo di Romolo, Roma",,"41.8550631,12.5181785",IT, Roma
36772,Artemis Agroteira,38.225669,23.045128,Mavrovouni,540938,"38.225669,23.045128",GR, 
36661,,34.950533,33.342979,Mavrovounoi,707578,"34.950533,33.342979",CY, 
21298,,46.34904,11.01749,"Mechel, Cles",187471,"46.34904,11.01749",IT, 
1211,,49.8881157518,6.518048272,Meckel,,"49.8881157518,6.518048272",DE, Meckel
37147,,25.71982,32.60067,"Medinet Habu, Mortuary Temple of Ramesses III",321318358,"25.71982,32.60067",EG, 
36942,,35.70726,6.43468,"Medracen, Boumia",334591,"35.70726,6.43468",DZ, Boumia
36678,,29.3880544,31.1568042,Meidum,736958,"29.3880544,31.1568042",EG, 
36884,,25.720556,32.610556,Memnon Colossi,786066,"25.720556,32.610556",EG, 
36655,Baal-Hamman,35.101223,33.15302,Meniko-Likarkes,707490,"35.101223,33.15302",CY, Meniko
17304,,45.854925,6.188939,Menthon-Saint-Bernard,167832,"45.854925,6.188939",FR, Menthon-Saint-Bernard
19898,,50.2930572,7.5698575,"Merkurtempel, Stadtwald, Koblenz",,"50.2930572,7.5698575",DE, KO
22001,Nekromanteion,39.23622,20.53396,"Mesopotamo, Nekromanteion",531011,"39.23622,20.53396",GR, 
22652,Messon,39.196383,26.30533,"Messa, Lesbos",550734,"39.196383,26.30533",GR, 
36717,,38.207966,26.027536,Metokhi,550740,"38.207966,26.027536",GR, 
19120,,49.664408,6.509593,"Metzenberg, Tawern",109361,"49.664408,6.509593",DE, Nittel
36958,,31.969279,11.97282,Mezgura,344442,"31.969279,11.97282",LY, 
3784,,49.2916,9.15374,"Michaelsberg, Böttingen",,"49.2916,9.15374",DE, Gundelsheim
40631,[Runingenburc],49.03854,9.04568,"Michaelsberg, Cleebronn",,"49.03854,9.04568",DE, Cleebronn
20860,,50.3433582067,6.7223192864,"Michelsberg, Leudersdorf",,"50.3433582067,6.7223192864",DE, Üxheim
44349,,53.18426,-2.88944,"Minerva's Shrine, Chester",,"53.18426,-2.88944",GB, Chester
36727,Marica,41.229232,13.758706,Minturno,432925,"41.229232,13.758706",IT, Minturno
37174,,41.235978,-0.037789,"Miralpeix, Caspe",246502,"41.235978,-0.037789",ES, Caspe
20627,,46.786452,0.181821,Mirebeau,,"46.786452,0.181821",FR, Mirebeau
39470,,49.609558,0.440581,Mirville,,"49.609558,0.440581",FR, Mirville
45650,,49.06266,9.00468,"Mithräum I, Güglingen",,"49.06266,9.00468",DE, Güglingen
40633,,49.061623,9.005662,"Mithräum II, Güglingen",,"49.061623,9.005662",DE, Güglingen
45649,,49.90197,8.846936,"Mithräum, Dieburg",,"49.90197,8.846936",DE, Dieburg
20282,,48.1499684,7.7465295,"Mithräum, Riegel",,"48.1499684,7.7465295",DE, Riegel am Kaiserstuhl
45657,,46.413452,15.839818,"Mithraeum I, Ptuj",,"46.413452,15.839818",SI, Spodnja Hajdina
45658,,46.412505,15.839796,"Mithraeum II, Ptuj",,"46.412505,15.839796",SI, Spodnja Hajdina
42096,,46.420531,15.865384,"Mithraeum III, Zgornji Breg, Ptuj",,"46.420531,15.865384",SI, Ptuj
45665,,47.4736,-0.5542,"Mithraeum, Angers",,"47.4736,-0.5542",FR, Angers
45660,,45.272229,0.171146,"Mithraeum, Aubeterre-sur-Dronne",,"45.272229,0.171146",FR, Aubeterre-sur-Dronne
45693,,44.834764,-0.573687,"Mithraeum, Bordeaux",,"44.834764,-0.573687",FR, Bordeaux
45691,,44.3701357,4.6410951,"Mithraeum, Bourg-Saint-Andéol",,"44.3701357,4.6410951",FR, Bourg-Saint-Andéol
45696,,37.47115,-4.44755,"Mithraeum, Cabra",,"37.47115,-4.44755",ES, Cabra
44351,,55.033849,-2.222541,"Mithraeum, Carrawburgh",,"55.033849,-2.222541",GB, 
45661,,54.963727,-2.763704,"Mithraeum, Castlesteads",,"54.963727,-2.763704",GB, 
45699,,34.749954,40.725811,"Mithraeum, Dura-Europos",,"34.749954,40.725811",SY, 
45695,,37.417645,-4.725476,"Mithraeum, Fuente Álamo, Puente Genil",,"37.417645,-4.725476",ES, Puente Genil
20820,,49.373943,8.157275,"Mithraeum, Gimmeldingen",,"49.373943,8.157275",DE, Neustadt an der Weinstraße
25448,,55.010252,-2.329113,"Mithraeum, Housesteads Temple 3",832240145,"55.010252,-2.329113",GB, 
45664,,55.936541,-3.0546636,"Mithraeum, Inveresk",,"55.936541,-3.0546636",GB, Inveresk
39147,,48.274055,10.87458,"Mithraeum, Königsbrunn",,"48.274055,10.87458",DE, Königsbrunn
45662,,48.66872,13.08028,"Mithraeum, Künzing",,"48.66872,13.08028",DE, Künzing
45690,,47.123839,4.959429,"Mithraeum, Les Bollards",,"47.123839,4.959429",FR, Nuits-Saint-Georges
22909,,51.512628,-0.091644,"Mithraeum, London",17649950,"51.512628,-0.091644",GB, London
40573,,47.8936648,12.1447421,"Mithraeum, Mühlheim, Prutting",,"47.8936648,12.1447421",DE, Prutting
45681,,46.096268,7.070319,"Mithraeum, Martigny",,"46.096268,7.070319",CH, Martigny
19532,,49.0089175,9.2106464,"Mithraeum, Mundelsheim",,"49.0089175,9.2106464",DE, Besigheim
44350,,55.001501,-1.828634,"Mithraeum, Rudchester",,"55.001501,-1.828634",GB, Heddon-on-the-Wall
45700,,48.730274,7.053757,"Mithraeum, Sarrebourg",,"48.730274,7.053757",FR, Sarrebourg
45701,,44.090588,24.522896,"Mithraeum, Slăveni",,"44.090588,24.522896",RO, Gostavățu
43209,,49.7474096373,6.6418825512,"Mithraeum, Spitzmühle, Alt-Heiligkreuz",,"49.7474096373,6.6418825512",DE, TR
45702,,50.806316,4.92399,"Mithraeum, Tienen",,"50.806316,4.92399",BE, Tienen
45697,,38.486299,-8.8847364,"Mithraeum, Tróia",,"38.486299,-8.8847364",PT, 
45689,,45.89768,5.68279,"Mithraeum, Vieu",,"45.89768,5.68279",FR, Vieu
39139,,49.073357,10.832198,"Mithraeum, Wachstein",,"49.073357,10.832198",DE, Theilenhofen
40725,,49.415855,8.679235,"Mitraeum I, Neuenheim",,"49.415855,8.679235",DE, Heidelberg
40724,,49.413967,8.693815,"Mitraeum II, Neuenheim",,"49.413967,8.693815",DE, Heidelberg
45672,,41.902964,12.4891,"Mitreo Barberini, Roma",,"41.902964,12.4891",IT, Roma
45673,,41.89981,12.485662,"Mitreo d'Orazio Muti, Roma",,"41.89981,12.485662",IT, Roma
45659,,43.0091412,-7.5590953,Mitreo de Lugo,,"43.0091412,-7.5590953",ES, Lugo
45675,,41.89291,12.482628,Mitreo del Campidoglio «lo Perso»,,"41.89291,12.482628",IT, Roma
45670,,41.888114,12.482856,"Mitreo del Circo Massimo, Roma",,"41.888114,12.482856",IT, Roma
45671,,41.894894,12.501063,"Mitreo dell'Esquilino, Roma",,"41.894894,12.501063",IT, Roma
45674,,41.898252,12.47858,"Mitreo della Cripta di Balbo, Roma",,"41.898252,12.47858",IT, Roma
45668,,41.879922,12.493118,"Mitreo delle Terme di Caracalla, Roma",,"41.879922,12.493118",IT, Roma
45663,,41.13598,1.38634,Mitreo dels Munts,,"41.13598,1.38634",ES, 
45680,,42.410948,11.286628,Mitreo di Cosa,,"42.410948,11.286628",IT, 
45677,,45.7843,13.5979,Mitreo di Duino,,"45.7843,13.5979",IT, 
45676,,41.769369,12.65559,Mitreo di Marino,,"41.769369,12.65559",IT, Marino
45687,,40.903872,12.954894,Mitreo di Ponza,,"40.903872,12.954894",IT, 
45666,,41.889675,12.497281,"Mitreo di San Clemente, Roma",,"41.889675,12.497281",IT, Roma
45667,,41.883213,12.483655,"Mitreo di Santa Prisca, Roma",,"41.883213,12.483655",IT, Roma
45669,,41.884655,12.496744,"Mitreo di Santo Stefano Rotondo, Roma",,"41.884655,12.496744",IT, Roma
45654,,41.0801947,14.2520647,"Mitreo, Santa Maria Capua Vetere",,"41.0801947,14.2520647",IT, Santa Maria Capua Vetere
45679,,42.41933,11.6303,"Mitreo, Vulci",,"42.41933,11.6303",IT, 
36776,Serapis,38.586845,22.91291,Mixis-Smixi,541098,"38.586845,22.91291",GR, 
36758,Artemis Hegemone,38.58354,21.64621,Mokista/Agia Sofia,540666,"38.58354,21.64621",GR, Ag. Sofia
36858,,37.10203,13.87714,"Mollarella, Licata",462319,"37.10203,13.87714",IT, 
36718,,39.337532,26.199021,Monasteraki,550748,"39.337532,26.199021",GR, 
18151,,47.821045,1.476534,"Moncelon, Briou",138290,"47.821045,1.476534",FR, Briou
36779,Zeus Hypatos,38.40002,23.41105,Moni Sagmata,541179,"38.40002,23.41105",GR, 
18233,,42.981286,0.5370247,"Mont Sacon, Nistos / Sacoue",246520,"42.981286,0.5370247",FR, Bramevaque
40736,,50.259926,4.915131,"Mont-Fat, Dinant",,"50.259926,4.915131",BE, Dinant
42612,,41.73473,12.78394,Monte Algido,426632,"41.73473,12.78394",IT, 
37155,Iuppiter Latiaris,41.750158,12.709346,Monte Cavo,422949,"41.750158,12.709346",IT, 
36728,,41.62933,13.49042,"Monte dei Fichi, Boville Ernica",432951,"41.62933,13.49042",IT, 
37157,,41.864629,12.549328,Monte del Grano,422973,"41.864629,12.549328",IT, Roma
36859,,37.10823,13.87515,"Monte Poliscia, Licata",462357,"37.10823,13.87515",IT, 
37150,Aefula,41.93192,12.82197,"Monte S. Angelo in Arcese, Tivoli",422821,"41.93192,12.82197",IT, 
26543,,45.9166,10.81898,"Monte San Martino, Campi, Riva del Garda",383713,"45.9166,10.81898",IT, 
16592,Drion,41.7081385,15.954751,Monte Sant'Angelo,442570,"41.7081385,15.954751",IT, Monte Sant'Angelo
42230,,42.628333,12.60277,"Monte Torre Maggiore, Terni",,"42.628333,12.60277",IT, 
20617,,47.613028,6.3755119,Montjustin-et-Velotte,,"47.613028,6.3755119",FR, Montjustin-et-Velotte
36625,,36.15588,6.641021,Monument at Ain bou Merzoug,183817896,"36.15588,6.641021",DZ, Ouled Rahmoune
21631,Monumentum Regiae Gentis,36.5749645,2.552802,Monumentum Regiae Gentis,295310,"36.5749645,2.552802",DZ, Ain Tagourait
38781,,46.657062,6.53801,Mormont,,"46.657062,6.53801",CH, Eclépens
45305,,39.333456,21.819245,Moschato,,"39.333456,21.819245",GR, 
17730,,44.272472,1.294166,"Moulin du Souquet, Castelnau-Montratier",138277,"44.272472,1.294166",FR, Castelnau-Montratier
37139,Garizein Mons/Gerizim Mons,32.200742,35.273414,Mount Gerizim,678147,"32.200742,35.273414",,
36609,Poseidon,41.686799,32.250706,mouth of Bartin Su,845043,"41.686799,32.250706",TR, 
36959,,32.582303,14.039974,Msellata,344445,"32.582303,14.039974",LY, Cussabàt
37014,Zeus Ainesios,38.135248,20.672977,Mt. Ainos,531158,"38.135248,20.672977",GR, 
36760,Athena,38.787274,22.371895,Mt. Oeta,540680,"38.787274,22.371895",GR, 
37050,Zeus Olympios,40.046745,22.35171,Mt. Olympus,491756,"40.046745,22.35171",GR, 
37109,,29.096565,52.655808,Muk,922681,"29.096565,52.655808",IR, 
39107,,51.005058,5.713491,Mulheim,,"51.005058,5.713491",BE, Dilsen-Stokkem
36729,,41.369447,14.205497,Mura delle Fate,432974,"41.369447,14.205497",IT, 
36613,,25.483179,28.9732,Mut el-Kharab,624813669,"25.483179,28.9732",EG, 
36662,,35.28681,33.086765,Myrtou,707584,"35.28681,33.086765",,
36677,Andrianton,29.37404,30.87083,N Biyahmu,736887,"29.37404,30.87083",EG, 
36855,Hexapyla,37.107677,15.255154,N Siracusa,462241,"37.107677,15.255154",IT, 
36704,Hierakome,37.389566,28.04462,N Turgut,599646,"37.389566,28.04462",TR, 
19321,,50.5336203,6.7030087,Nöthen / Pesch,109214,"50.5336203,6.7030087",DE, Bad Münstereifel
36719,,38.557479,26.083139,Nagos,550765,"38.557479,26.083139",GR, 
37195,,33.967929,51.099442,Naisar,903085,"33.967929,51.099442",IR, Niasar
18748,,48.632434,5.386586,Naix  temple,,"48.632434,5.386586",FR, Saint-Amand-sur-Ornain
39101,,47.700556,-2.505833,"Nal, La Vraie-Croix",,"47.700556,-2.505833",FR, La Vraie-Croix
17398,,49.512433,4.300208,Nanteuil-sur-Aisne,109189,"49.512433,4.300208",FR, Nanteuil-sur-Aisne
22313,,29.966344,52.887438,Naqsh-i Rajab,922684,"29.966344,52.887438",IR, 
22312,,29.9889,52.87446,Naqsh-i Rustam,922685,"29.9889,52.87446",IR, 
37196,,33.506944,51.913611,Natanz,903086,"33.506944,51.913611",IR, Natanz
20835,,50.035516,6.526414,Nattenheim,,"50.035516,6.526414",DE, Nattenheim
37111,,28.792266,52.412769,Naudaran,922686,"28.792266,52.412769",IR, 
37182,,54.343492,-6.682569,Navan,89250,"54.343492,-6.682569",GB, 
26572,*Incerulae,42.23846,13.72837,Navelli,413175,"42.23846,13.72837",IT, Navelli
37197,,34.673036,50.261057,Navish,903087,"34.673036,50.261057",IR, 
36788,Ameria,40.633506,36.976865,"near Ardıçlı, formerly Agustu",857022,"40.633506,36.976865",TR, 
36590,Tantalus Monu.,38.575013,27.514705,near Taş Süret,550903,"38.575013,27.514705",TR, 
36636,,33.49663,35.74699,Nebi Safa,678302,"33.49663,35.74699",LB, 
20598,,50.107347682,6.5639135582,"Neidenbach, temple",,"50.107347682,6.5639135582",DE, Neidenbach
21931,Nemea,37.808904,22.7108171,Nemea,570504,"37.808904,22.7108171",GR, 
25435,,38.217396,24.027674,Nemesis,580034,"38.217396,24.027674",GR, 
22227,Diana,41.723936,12.710217,Nemi,422917,"41.723936,12.710217",IT, 
36871,,37.98068,38.74073,Nemrud Daği,658544,"37.98068,38.74073",TR, 
36684,Eileithyias Antron,35.318405,25.21053,Neraïdospilios/Koutsouras cave,589769,"35.318405,25.21053",GR, 
25588,,51.490763,-2.25777,Nettleton,79609,"51.490763,-2.25777",GB, 
20863,,49.9967082584,6.9448659629,Neuerburg,,"49.9967082584,6.9448659629",DE, Wittlich
20839,,49.8104940101,6.6008703431,Newel,,"49.8104940101,6.6008703431",DE, Newel
25432,,53.694369,-6.475031,Newgrange,79612,"53.694369,-6.475031",IE, 
17553,,44.673973,4.258982,Neyrac-les-Bains,167853,"44.673973,4.258982",FR, Meyras
20872,,50.692733,6.4829994,Nideggen,,"50.692733,6.4829994",DE, Nideggen
20840,,49.9427230224,6.755593844,Niersbach,,"49.9427230224,6.755593844",DE, 
42253,,43.029277,13.8572924,"Ninfeo romano, Cupra Marittima",,"43.029277,13.8572924",IT, Cupra Marittima
23839,,41.8279699,12.5480362,"Ninfeo Villa dei Quintili, Roma",,"41.8279699,12.5480362",IT, Roma
2024,Minatiacum,49.568119,4.054313,Nizy-le-Comte,109166,"49.568119,4.054313",FR, Nizy-le-Comte
42513,,25.725833,30.553333,"Nordtempel, Ain Labakha",,"25.725833,30.553333",EG, 
42525,,25.49288,30.509862,"Nordwesttempel, Ain el-Bileida",,"25.49288,30.509862",EG, Kharga
44376,,37.847,21.688,"Notenon Monastery, Skiada",,"37.847,21.688",GR, 
42220,Mercurius,48.843395,2.327117,"Notre Dames des Champs, Paris",,"48.843395,2.327117",FR, Paris
20255,,49.256758,1.409052,"Noyers, Les Andelys",109226,"49.256758,1.409052",FR, Les Andelys
39391,,47.337559,-0.232727,"Nymphée, Gennes",,"47.337559,-0.232727",FR, Gennes
11691,,51.1673,10.4188,Oberdorla,118886,"51.1673,10.4188",DE, Oberdorla
20841,,50.032089447,6.6955385195,Oberkail,,"50.032089447,6.6955385195",DE, Oberkail
41796,,47.611255,8.3483,Oberlauchringen,,"47.611255,8.3483",DE, Lauchringen
17527,,43.658404,3.297718,Octon,148146,"43.658404,3.297718",FR, Octon
23774,,41.897237,12.473672,Odeum,,"41.897237,12.473672",IT, Roma
18166,,48.346449,0.075101,Oisseau-Le-Petit,69544,"48.346449,0.075101",FR, Oisseau-le-Petit
25115,,37.971924,23.726389,Old Temple of Athena,,"37.971924,23.726389",GR, Athina
36882,Abaton,24.041393,32.897895,on Bigah Is.,785957,"24.041393,32.897895",EG, 
36709,Poseidon Phytalmios?,36.7378,25.361,on Ios,599899,"36.7378,25.361",GR, 
36596,Artemis Limnatis,37.546685,21.699566,on Lapithos M.,570119,"37.546685,21.699566",GR, 
36694,Apollo Lepsios,37.306356,26.772758,on Leipsoi,599505,"37.306356,26.772758",GR, 
36697,Artemis Parthenos,37.189532,26.803339,on Leros GRE,599523,"37.189532,26.803339",GR, 
36976,Melpeia,37.43148,21.963136,on Mt. Lykaion,570476,"37.43148,21.963136",GR, 
36701,Athena Poliouchos,37.120824,25.440101,on Naxos,599540,"37.120824,25.440101",GR, 
36902,Zeus Melosios,37.047029,25.518719,on Naxos,600002,"37.047029,25.518719",GR, 
36901,Thermai,36.61651,27.17395,on Nisyros,599977,"36.61651,27.17395",GR, 
36710,Poseidon?,37.143535,25.293231,on Paros,599901,"37.143535,25.293231",GR, 
43463,Delion,37.10352,25.15487,on Paros,599586,"37.10352,25.15487",GR, Krotiri
43464,Eileithyaia/Zeus Hypatos/Aphrodite?,37.10146,25.17619,on Paros,,"37.10146,25.17619",GR, 
43454,"Athena, Zeus?",36.43255,25.41837,on Santorini,599541,"36.43255,25.41837",GR, Imerovigli
17665,,47.84251,8.93987,Orsingen,187499,"47.84251,8.93987",DE, Orsingen-Nenzingen
36740,,41.040633,15.32846,"Oscata di Sopra, Bisaccia",442701,"41.040633,15.32846",IT, Oscata
26592,Compitum,41.72951,13.13954,"Osteria della Fontana, Anagni",422908,"41.72951,13.13954",IT, Osteria della Fontana
20715,,50.0138638113,6.54617437,"Otrang, Fließem",,"50.0138638113,6.54617437",DE, Fließem
36783,Apollo Karios,38.30012,27.93765,Ovacık,550441,"38.30012,27.93765",TR, 
36935,Zeus Keraunios?,38.666587,28.715181,Pırnar Tepe,609585,"38.666587,28.715181",TR, 
44403,,51.360786,-2.637273,"Pagans Hill, Chew Stoke",,"51.360786,-2.637273",GB, Chew Stoke
37185,,35.118595,45.711981,Paikuli,894058,"35.118595,45.711981",IQ, Darbandikhan
36585,,39.93652,25.255183,Palaio Pretorio,550798,"39.93652,25.255183",GR, 
36692,Zeus Thenatas,35.330024,25.222678,Palaiokhora/Amnisos,590101,"35.330024,25.222678",GR, 
22853,Megaloi Theoi,40.5009431,25.5302283,Paleapoli,501510,"40.5009431,25.5302283",GR, 
44342,Athena,37.4132,21.7223,Palio Prasidaki,,"37.4132,21.7223",GR, 
36688,,35.590163,24.142179,"Panagia Arkoudiotissa, Gouverneto",589971,"35.590163,24.142179",GR, 
36693,Apollo Asgelatos,36.361333,25.823783,"Panagia Kalamiotisa, Anafi",599504,"36.361333,25.823783",GR, 
36730,,41.093134,13.915227,"Panetelle, Mondragone",433012,"41.093134,13.915227",IT, Mercato Ortifrutticolo
22897,‘Iovis Lareni’/Ocriticum,42.002986,13.990212,"Pantano, Cansano",432886,"42.002986,13.990212",IT, 
10302,Patriacum,46.203,2.1513,Parsac,138511,"46.203,2.1513",FR, Parsac
36924,Potamos,39.686107,31.171128,Parsi Bey Köy,609509,"39.686107,31.171128",TR, 
22030,Parthenion,44.497827,33.489872,Parthenion,226713,"44.497827,33.489872",,
25114,,37.971519,23.726633,Parthenon,,"37.971519,23.726633",GR, Athina
17322,,45.923392,6.684919,Passy,167866,"45.923392,6.684919",FR, Passy
36686,Kranaion Antron,35.243586,24.573798,Patsos cave,589881,"35.243586,24.573798",GR, Patsos
37011,,39.932825,20.178516,Pecë,531050,"39.932825,20.178516",AL, Peca
43547,Zeus Akraios,39.40758,23.04788,Pelion,541178,"39.40758,23.04788",GR, 
36978,,37.639776,24.33575,Pera Milous,570582,"37.639776,24.33575",GR, 
36750,Apollo,38.453991,23.252585,Perdikovrysi,540650,"38.453991,23.252585",GR, 
36664,,35.046085,33.704175,Pergamos,707606,"35.046085,33.704175",CY, Beyarmudu
18115,,47.390631,-1.468331,Petit-Mars,138512,"47.390631,-1.468331",FR, Petit-Mars
36741,,40.4023,16.78531,"Pezzica, Bernalda",442723,"40.4023,16.78531",IT, 
38835,,47.577540803,7.641812122,"Pfaffenlohweg, Riehen",,"47.577540803,7.641812122",CH, Riehen
36600,Hermai,37.32399,22.543094,Phonemenoi,570291,"37.32399,22.543094",GR, 
42940,,42.10213,13.75586,"Pié di Francia, Castel di Ieri",,"42.10213,13.75586",IT, 
23748,,42.2590011,11.8010949,"Pian di Civita, Tarquinia",,"42.2590011,11.8010949",IT, 
20503,,46.946853,1.225093,"Pied de Bourges, Clion",,"46.946853,1.225093",FR, Clion
20873,,50.808539,6.378785,Pier,,"50.808539,6.378785",DE, Langerwehe
18046,,44.23506,6.01039,Pierre Écrite,157905,"44.23506,6.01039",FR, Saint-Geniez
36860,,37.48538,14.0709,"Pietra Rossa, Caltanissetta",462437,"37.48538,14.0709",IT, Caltanissetta
21761,,41.740515,14.387746,Pietrabbondante,433025,"41.740515,14.387746",IT, 
23834,Callicula,41.336215,14.169445,Pietravairano,,"41.336215,14.169445",IT, 
26552,,43.647445,11.82588,"Pieve Socana, Castel Focognano",413254,"43.647445,11.82588",IT, Pieve A Socana
36689,,35.22627,25.34834,"Pigi, Ag. Panteleimon",589997,"35.22627,25.34834",GR, Mpitzariano
26351,,47.1185119,10.6669541,"Pillerhöhe, Fließ",187510,"47.1185119,10.6669541",AT, Fließ
45341,Hermaion,39.1271303,22.3972716,Pirgaki,,"39.1271303,22.3972716",GR, 
20635,,48.163734,2.202981,Pithiviers-le-Vieil,109248,"48.163734,2.202981",FR, Pithiviers-le-Vieil
10653,,46.60212,12.9431255,Plöckenpass,187514,"46.60212,12.9431255",IT, 
20770,,46.737042,0.765208,Pleumartin,,"46.737042,0.765208",FR, Pleumartin
20759,,47.965817,6.460263,Plombières-les-Bains,,"47.965817,6.460263",FR, Plombières-les-Bains
39151,,47.801346,7.671381,"Podiumstempel, Badenweiler",,"47.801346,7.671381",DE, Badenweiler
36676,Karnasion,37.266348,21.948808,Polichni,570331,"37.266348,21.948808",GR, 
36647,Apollo Alasiotas,35.020143,33.278243,Politiko,707475,"35.020143,33.278243",CY, 
36761,Demeter,38.635554,22.552353,Polydrosos,540728,"38.635554,22.552353",GR, 
37161,Sep. Plautii,41.954623,12.762433,Ponte Lucano,423066,"41.954623,12.762433",IT, Tivoli
36708,,36.623294,27.85236,Pontikokastro,599897,"36.623294,27.85236",GR, 
38840,,47.428407196,7.077123973,Porrentruy,,"47.428407196,7.077123973",CH, Porrentruy
36742,,40.262426,17.897555,Porto Cesareo,442730,"40.262426,17.897555",IT, Porto Cesareo
41946,,40.13008,-5.30833,"Postoloboso, Candeleda",,"40.13008,-5.30833",ES, Candeleda
36651,Apollo,35.045617,33.453444,Potamia-Ellines,707480,"35.045617,33.453444",CY, Potamia
17461,,46.782648,-0.837243,Pouzauges,138522,"46.782648,-0.837243",FR, Pouzauges
26604,,41.66391,12.48009,"Pratica di Mare, Pomezia",183817905,"41.66391,12.48009",IT, Pratica di Mare
37048,,41.2080847,22.4991792,Prdejci,491702,"41.2080847,22.4991792",MK, Prdejtsi
36980,Zeus,37.621034,24.359075,Profitis Elias,570763,"37.621034,24.359075",GR, 
37012,,38.830726,20.810848,Profitis Elias,531073,"38.830726,20.810848",GR, 
36595,Apollo Maleatas,37.12702,22.710967,"Prophitis Ilias, Kosmas",570097,"37.12702,22.710967",GR, 
36681,Aigaion Antron,35.1627678,25.444909,Psykhro/Diktaian cave,589675,"35.1627678,25.444909",GR, Psichro
18276,,43.9709770533,3.0998927202,"Puech Caut, Sainte-Eulalie-de-Cernon",,"43.9709770533,3.0998927202",FR, Sainte-Eulalie-de-Cernon
39979,,37.189102,-7.359701,"Punta del Moral, Isla de Canela, Ayamonte",,"37.189102,-7.359701",ES, Ayamonte
23177,Minerva,40.569248,14.324791,"Punta della Campanella, Massa Lubrense",432937,"40.569248,14.324791",IT, 
37198,,33.291443,46.952321,Pusht-i Arisht,903097,"33.291443,46.952321",IR, 
18100,,45.9297689,1.869932,Puy Lautard,138527,"45.9297689,1.869932",FR, Saint-Pardoux-Morterolles
37144,,46.0336346,1.568757,"Puy-de-Jouër, Saint-Goussaud",138556,"46.0336346,1.568757",FR, Saint-Goussaud
36648,Apollo Mageirios,35.010287,33.690586,Pyla-Stavros/Palaikastro,707477,"35.010287,33.690586",,
37112,,29.688297,53.131556,Qadamgah,922703,"29.688297,53.131556",IR, 
37127,,35.0999,36.24415,Qadboun,668342,"35.0999,36.24415",SY, Kaff al-Jaa
44505,,33.2866,35.6688,Qal'at Bustra,,"33.2866,35.6688",LB, 
37136,Atargatis,33.99801,35.80772,Qal'at Faqra,678039,"33.99801,35.80772",LB, 
36866,Chordiraza?/Baisampse?,36.583961,38.252706,Qal'at Najm,658437,"36.583961,38.252706",SY, 
36885,,26.00514,32.81783,Qala,786093,"26.00514,32.81783",EG, 
37113,,29.066671,51.900013,Qanat-i Bagh,922705,"29.066671,51.900013",IR, 
44507,,33.416667,35.85,Qasr Chbib,,"33.416667,35.85",SY, Erneh
42517,,25.584444,30.590833,Qasr ed-Dabaschiya,,"25.584444,30.590833",EG, 
37129,,34.08741,36.11797,Qasr el-Banat,668344,"34.08741,36.11797",LB, 
36881,[Per-ousekh],25.28664,30.55789,Qasr el-Ghuweita,776215,"25.28664,30.55789",EG, 
36639,,33.843412,36.303996,Qasr Nemrud,678349,"33.843412,36.303996",LB, 
37085,,36.53173,42.508844,Qasr Serij,874655,"36.53173,42.508844",IQ, 
36895,Tzitzis,23.65342,32.8803,Qertassi,795876,"23.65342,32.8803",EG, 
37186,,35.831888,44.957068,Qizqapan,894075,"35.831888,44.957068",IQ, 
36638,,33.91336,35.99056,Qsarnaba,678348,"33.91336,35.99056",LB, 
37154,Fortuna Muliebris,41.843745,12.555806,"Quadraro, Roma",422926,"41.843745,12.555806",IT, Roma
36734,‘Trebula’,41.91368,14.28291,Quadri,433163,"41.91368,14.28291",IT, 
36573,,31.148582,16.95207,Quarrush,364007,"31.148582,16.95207",LY, 
37156,Iuppiter?,41.840026,12.536854,"Quarto miglio, Roma",422950,"41.840026,12.536854",IT, Roma
20842,,49.9486157558,6.5767045418,Röhl,,"49.9486157558,6.5767045418",DE, Röhl
44692,,49.87701,6.92369,"Römerbrunnen, Niederemmel",,"49.87701,6.92369",DE, Piesport
19257,,50.6136669,6.7908655,"Römischer Heidentempel, Kreuzweingarten",,"50.6136669,6.7908655",DE, Euskirchen
26576,,42.102584,13.814815,Raiano,413281,"42.102584,13.814815",IT, Raiano
20137,,45.591797,2.948923,"Rajat, Murol",,"45.591797,2.948923",FR, Murol
20856,,49.8124874757,6.5172512287,"Ralingen, Sauerbrunnen",,"49.8124874757,6.5172512287",DE, Ralingen
36602,Ramesseum,25.727778,32.610556,"Ramesseum, Mortuary temple of Ramesses II",963047542,"25.727778,32.610556",EG, 
36665,,34.685588,32.624417,Rantidi,707615,"34.685588,32.624417",CY, Kouklia
36672,Leuke Akte,31.230934,27.857983,Ras el-Abiad,716587,"31.230934,27.857983",EG, 
36960,,32.430474,13.785989,Ras el-Haddagia,344468,"32.430474,13.785989",LY, 
41237,Casius Mons,31.2116,33.0779,Ras Qasrun/Khatib el Gals,687872,"31.2116,33.0779",EG, 
22855,,39.121933,27.183391,"Red Basilica (Serapis Temple), Bergama",,"39.121933,27.183391",TR, 
23843,,41.8651843,12.516428,"Redicolo, Roma",423022,"41.8651843,12.516428",IT, Roma
45003,,49.5370834,7.2830279,Reichweiler,,"49.5370834,7.2830279",DE, Reichweiler
44315,,49.77998,2.39216,Remiencourt,,"49.77998,2.39216",FR, Remiencourt
44405,,49.77998,2.39216,Remiencourt,,"49.77998,2.39216",FR, Remiencourt
36886,,24.57108,32.89397,Resras,786097,"24.57108,32.89397",EG, 
20645,,49.84939,2.12168,Revelles,,"49.84939,2.12168",FR, Revelles
38728,,47.57542,7.761292,Rheinfelden (Baden),,"47.57542,7.761292",DE, Rheinfelden (Baden)
17404,,49.9644208005,2.5540398372,Ribemont-sur-Ancre,109278,"49.9644208005,2.5540398372",FR, Ribemont-sur-Ancre
37187,,33.844805,41.819485,Rijelat Umm Kubar,894079,"33.844805,41.819485",IQ, 
17800,,51.497391,4.683738,Rijsbergen,109282,"51.497391,4.683738",NL, Rijsbergen
36680,,29.469012,35.254592,Risqah,746807,"29.469012,35.254592",JO, 
42127,,37.567222,14.288056,"Rocca di Cerere, Enna",,"37.567222,14.288056",IT, Enna
36743,,40.426403,15.193007,Roccadaspide,442747,"40.426403,15.193007",IT, Roccadaspide
26468,,41.60048,14.56135,"Roccaspromonte, Castropignano",433067,"41.60048,14.56135",IT, Roccaspromonte
25856,,39.790676,19.787678,Roda,531087,"39.790676,19.787678",GR, Roda
44338,Zeus Areios,39.7276,20.7309,"Rodotopi, Ioannina",,"39.7276,20.7309",GR, 
39106,,51.202164,5.972786,Roermond,,"51.202164,5.972786",NL, Roermond
36961,,31.951602,12.169397,Rogeban,344472,"31.951602,12.169397",LY, Yefren
18072,,43.663327,5.347199,Rognes,148169,"43.663327,5.347199",FR, Rognes
20867,,49.42494,4.176932,Roizy,,"49.42494,4.176932",FR, Roizy
18076,,43.532393,5.27003,Roquepertuse,148174,"43.532393,5.27003",FR, Velaux
36744,,40.69114,15.94761,"Rossano, Vaglio Basilicata",442750,"40.69114,15.94761",IT, 
22687,Zeus Diktaios/Eleia?,35.19517,26.27555,"Roussolakkos, Palaikastro",590100,"35.19517,26.27555",GR, 
23436,Hieron (Byzantion),41.1812426,29.0735977,Rumelikavağı,521034,"41.1812426,29.0735977",TR, 
36745,,40.718153,15.679287,Ruoti,442754,"40.718153,15.679287",IT, Ruoti
36580,,32.923801,22.1138,Ruus el-Aslab,373882,"32.923801,22.1138",LY, Al Qubah
36898,,27.74252,36.277823,Ruwwafah,814729,"27.74252,36.277823",SA, 
37000,,38.64328,-7.44304,S. Miguel de Mota,256429,"38.64328,-7.44304",PT, 
22917,Ceres et Faustina,41.857844,12.524306,"S. Urbano, Roma",422889,"41.857844,12.524306",IT, Roma
36929,Zeus Bronton,40.005982,29.917248,"Sırasöğütler, Ahmetler",609578,"40.005982,29.917248",TR, 
36925,Tekmoreioi,38.432562,31.004776,Sağır,609547,"38.432562,31.004776",TR, 
18229,,42.98801,0.563217,Sacoué,246597,"42.98801,0.563217",FR, Sacoué
17683,,46.010863,3.9382,Saint-Alban-les-Eaux,167891,"46.010863,3.9382",FR, Saint-Alban-les-Eaux
17593,,44.61861,3.08167,"Saint-Andéol, Marchastel",138549,"44.61861,3.08167",FR, Marchastel
18164,,49.557165,1.212792,Saint-André-sur-Cailly,109304,"49.557165,1.212792",FR, Saint-André-sur-Cailly
18145,,49.14808,1.32437,Saint-Aubin-sur-Gaillon,109305,"49.14808,1.32437",FR, Saint-Aubin-sur-Gaillon
18123,,49.330833,-0.392896,Saint-Aubin-sur-Mer,69560,"49.330833,-0.392896",FR, Saint-Aubin-sur-Mer
18226,,42.9151529,0.692118,Saint-Béat,246600,"42.9151529,0.692118",FR, Saint-Béat
17690,,45.590322,4.318391,Saint-Galmier,167894,"45.590322,4.318391",FR, Saint-Galmier
20086,,47.750877,4.668739,Saint-Germain-le-Rocheux,,"47.750877,4.668739",FR, Saint-Germain-le-Rocheux
18113,,46.902738,-1.998738,Saint-Gervais,138555,"46.902738,-1.998738",FR, Saint-Gervais
17505,Medilianum?,43.504942,3.311143,"Saint-Jean, Roujan",148175,"43.504942,3.311143",FR, Roujan
2140,,49.5059019,2.4319189,Saint-Just-en-Chaussée,109309,"49.5059019,2.4319189",FR, Saint-Just-en-Chaussée
17551,,44.606854,3.9706,Saint-Laurent-les-Bains,167897,"44.606854,3.9706",FR, Saint-Laurent-les-Bains
17555,,44.500462,4.484154,Saint-Maurice-d'Ibie,167900,"44.500462,4.484154",FR, Saint-Maurice-d'Ibie
20154,,42.9837364,0.6693352,Saint-Pé-d'Ardet,,"42.9837364,0.6693352",FR, Saint-Pé-d'Ardet
44982,,45.572463,5.924525,Saint-Pierre de Lémenc,,"45.572463,5.924525",FR, Chambéry
20155,,44.57164,-0.19168,Saint-Pierre-d'Aurillac,,"44.57164,-0.19168",FR, Saint-Pierre-d'Aurillac
20156,,43.1716214,0.5764462,Saint-Plancard,,"43.1716214,0.5764462",FR, Saint-Plancard
17705,,46.395025,2.607516,Saint-Victor,138564,"46.395025,2.607516",FR, Saint-Victor
17552,,44.712394,4.1334,Sainte-Abeille,167890,"44.712394,4.1334",FR, Le Roux
17764,,49.105294,6.096339,Sainte-Ruffine,109315,"49.105294,6.096339",FR, Sainte-Ruffine
38848,,47.645992603,9.001673658,"Salen, Homburg",,"47.645992603,9.001673658",CH, Hörhausen
17321,,45.472429,6.533888,Salins-les-Thermes,167909,"45.472429,6.533888",FR, Salins-les-Thermes
36610,,41.547875,34.662639,Sallar,845053,"41.547875,34.662639",TR, 
36998,Menestheus,36.73512,-6.46823,Salmedina Is.,256294,"36.73512,-6.46823",ES, Chipiona
17689,,45.73676,4.28811,Salt-en-Donzy,167910,"45.73676,4.28811",FR, Salt-en-Donzy
36899,Poseidon?,37.712168,27.050843,Samos,599902,"37.712168,27.050843",GR, 
36874,Zeus Aglaios,40.39146,16.74649,"San Biagio, Bernalda",442859,"40.39146,16.74649",IT, 
22289,,43.44468,11.90019,"San Cornelio, Arezzo",413070,"43.44468,11.90019",IT, 
26477,,41.598459,14.75547,San Giovanni in Galdo,433086,"41.598459,14.75547",IT, 
36732,,41.84293,14.56192,San Giovanni Lipioni,433087,"41.84293,14.56192",IT, San Giovanni Lipioni
37177,,42.22589,-1.11806,"San Jorge, Biota",246619,"42.22589,-1.11806",ES, Ejea de los Caballeros
37087,,39.91964,8.4531,San Salvatore di Cabras,472008,"39.91964,8.4531",IT, San Salvatore
44314,,49.31647,2.60445,Sanctuaire à Pont-Sainte-Maxence,,"49.31647,2.60445",FR, Pont-Sainte-Maxence
39562,,46.516656321,6.600485485,"sanctuaire celte, Lausanne-Vidy",,"46.516656321,6.600485485",CH, Lausanne
20731,,47.968534,0.166283,"Sanctuaire de Mars Mullo, Allonnes",,"47.968534,0.166283",FR, Allonnes
42683,,45.78126,-0.00865,"Sanctuaire des Bouchauds, Saint-Cybardeaux",,"45.78126,-0.00865",FR, Saint-Cybardeaux
39578,,46.783469832,7.17705535,"Sanctuaire souterrain, Pierrafortscha",,"46.783469832,7.17705535",CH, Pierrafortscha
45481,,47.44932,6.79291,"Sanctuaire, Mandeure",,"47.44932,6.79291",FR, Mandeure
22844,,37.083,22.435,"Sanctuary of Artemis Orthia, Sparti",,"37.083,22.435",GR, Sparti
43654,,38.748883,22.857474,Sanctuary of Asclepios,,"38.748883,22.857474",GR, 
44546,,41.8871064,12.7157013,Sanctuary of Juno Gabina,,"41.8871064,12.7157013",IT, 
25112,,37.9714,23.728,Sanctuary of Pandion,,"37.9714,23.728",GR, Athina
22852,,37.1858688,21.9243404,"Sanctuary of Zeus Ithomatas, Mavromati",,"37.1858688,21.9243404",GR, 
25111,,37.9718,23.7273,Sanctuary of Zeus Polieus,,"37.9718,23.7273",GR, Athina
41881,,44.456219,5.748653,"Sanctuary, La Bâtie-Montsaléon",,"44.456219,5.748653",FR, La Bâtie-Montsaléon
36999,Phosphoros/Lux Dubia,36.77825,-6.35409,Sanlúcar de Barrameda,256363,"36.77825,-6.35409",ES, Sanlúcar de Barrameda
37149,,42.1492,13.29334,"Sant'Anatolia, Borgorose",413295,"42.1492,13.29334",IT, Santa Anatolia
22559,Diana Tifatina,41.118294,14.260515,"Sant'Angelo in Formis, Capua",432813,"41.118294,14.260515",IT, Sant'Angelo In Formis
37176,,41.81565,3.00345,Santa Cristina d’Aro,246614,"41.81565,3.00345",ES, Santa Cristina d'Aro
37167,,42.98123,-7.687168,Santa Eulalia de Bóveda,236646,"42.98123,-7.687168",ES, Lugo
42336,,41.49798,13.70184,"Santa Maria della Libera, Aquino",,"41.49798,13.70184",IT, Aquino
26451,,45.560038,10.907233,"Santa Maria di Valverde, Marano di Valpolicella",383782,"45.560038,10.907233",IT, 
22923,,41.8585531,12.4602025,"Santa Passera, Roma",423051,"41.8585531,12.4602025",IT, Roma
37145,*Calanta,38.76722,-8.03341,"Santana do Campo, Arraiolos",256042,"38.76722,-8.03341",PT, 
40135,,40.33999,-7.41788,Santuário da Ns. das Cabeças,,"40.33999,-7.41788",PT, 
40137,,39.90706,-7.17339,Santuário da Sra. do Almortão,,"39.90706,-7.17339",PT, Idanha a Nova
41940,,41.28343,-7.682348,"Santuário de Panóias, Vale de Nogueiras, Vila Real",236594,"41.28343,-7.682348",PT, Vale de Nogueiras
40138,,38.99774,-7.48622,Santuário de S. Pedro de Almuro,,"38.99774,-7.48622",PT, 
44632,,43.312314,-2.608292,Santuario de Gastiburu,,"43.312314,-2.608292",ES, 
22896,*Hercules Curinus,42.08845,13.93468,"Santuario di Ercole Curino, Badia, Sulmona",413165,"42.08845,13.93468",IT, 
42207,,41.963261,12.792339,"Santuario di Ercole Vincitore, Tivoli",,"41.963261,12.792339",IT, Tivoli
22184,Lucus Feroniae,41.31056,13.20028,"Santuario di Feronia, Terracina",432918,"41.31056,13.20028",IT, 
42310,,45.954277,10.284884,"Santuario di Minerva, Spinera, Breno",,"45.954277,10.284884",IT, 
37114,,29.283645,51.673082,Sar Mashhad,922716,"29.283645,51.673082",IR, Sar Mashhad
37120,,36.225626,65.927298,Sar-i Pul,961961,"36.225626,65.927298",AF, Sar-e Pol
36939,Zeus Pandemos,39.513439,28.85623,Sarısipahiler,609589,"39.513439,28.85623",TR, 
44511,,33.87864,36.09288,Saraain El Faouqa,,"33.87864,36.09288",LB, 
37110,,30.04531,51.55969,Sarab-e Bahram,922683,"30.04531,51.55969",IR, روستای سرآب بهرام
36782,Apollo Axyros,38.743855,28.55825,Saraycık,550440,"38.743855,28.55825",TR, 
20857,,50.2448712415,6.8727347158,Sarmersbach,,"50.2448712415,6.8727347158",DE, Sarmersbach
23359,Satyrou Mnema,45.34421,36.81803,Satyrou Mnema,854731,"45.34421,36.81803",RU, Beregovoy
45652,,47.23512,16.62191,Savaria Mithraeum,,"47.23512,16.62191",HU, Szombathely
26582,,41.901717,13.882722,Scanno,433109,"41.901717,13.882722",IT, Scanno
44411,,54.48894,-2.004598,"Scargill Moor, Scargill",,"54.48894,-2.004598",GB, 
7863,Aquae Segetae,48.1153774,2.6227127,Sceaux-du-Gâtinais,109330,"48.1153774,2.6227127",FR, Sceaux-du-Gâtinais
26361,,47.995556,14.038056,"Schachadorf, Ried",118932,"47.995556,14.038056",AT, Schachadorf
20843,,50.1518598452,6.8439150811,Schalkenmehren,,"50.1518598452,6.8439150811",DE, Schalkenmehren
1239,,49.9327169876,6.5587425081,Scharfbillig,,"49.9327169876,6.5587425081",DE, Scharfbillig
20846,,49.8861299127,6.6536637771,Schleidweiler-Rodt,,"49.8861299127,6.6536637771",DE, Zemmer
26500,,46.510876,11.574719,Sciliar,187544,"46.510876,11.574719",IT, 
42291,,42.672871,11.05109,"Scoglietto, Alberese, Grosseto",,"42.672871,11.05109",IT, 
37199,,33.89258,46.033117,Seh Pa Aivan,903112,"33.89258,46.033117",IR, 
20858,,50.0574903023,6.6417690148,Seinsfeld,,"50.0574903023,6.6417690148",DE, Seinsfeld
22918,Sep. Caecilia Metella,41.852172,12.520874,"Sep. Caecilia Metella, Roma",423064,"41.852172,12.520874",IT, Roma
16270,,48.89779,1.67122,Septeuil,109339,"48.89779,1.67122",FR, Septeuil
25287,,31.182178,29.89608,"Serapeum, Alexandria",,"31.182178,29.89608",EG, 
42542,,27.248467,33.301172,Serapis-Tempel,,"27.248467,33.301172",EG, 
42540,,26.81011,33.486496,"Serapis-Temple, Wadi Umm Hussein",,"26.81011,33.486496",EG, 
18048,,44.362409,5.775562,Serre d'Astier,167923,"44.362409,5.775562",FR, Eyguians
5044,,49.574754,6.575156,Serrig,109342,"49.574754,6.575156",DE, Serrig
36852,,37.484866,38.068965,Sesönk,658595,"37.484866,38.068965",TR, 
36962,,32.869505,13.207743,Sghedeida,344481,"32.869505,13.207743",LY, Tripoli
36887,,25.861108,32.776861,Shanhur,786109,"25.861108,32.776861",EG, 
36854,Zeus Madbachos,36.279655,36.823854,Sheikh Barakāt,658637,"36.279655,36.823854",SY, 
36581,Serapeion,31.328274,20.10588,Sidi el-Msceiti?,373887,"31.328274,20.10588",LY, 
36633,,37.159408,9.118354,Sidi-Mechrig,315166,"37.159408,9.118354",TN, Sidi Mechreg
26449,,48.2533477,16.3219216,"Sievering, Wien",128512,"48.2533477,16.3219216",AT, Wien
37394,Kraneia?,39.251397,21.2141655,Sikies,530963,"39.251397,21.2141655",GR, 
17303,,45.946611,6.035302,Sillingy,167924,"45.946611,6.035302",FR, Sillingy
36611,,41.134943,32.449381,Sipahiler,845063,"41.134943,32.449381",TR, 
36589,,39.107795,26.173588,Skala Polykhnitou,550885,"39.107795,26.173588",GR, 
36786,Artemis Thermia,39.1816,26.4979,Skala/Loutra Thermis,550457,"39.1816,26.4979",GR, Paralia Thermis
22724,Aphrodite Paphia,35.25725,33.487926,Skali,707471,"35.25725,33.487926",,
36582,,32.589987,21.71459,Slonta,373895,"32.589987,21.71459",LY, Suluntah
37178,,42.432131,-1.314682,"Sofuentes, Sos del Rey Católico",246656,"42.432131,-1.314682",ES, Sofuentes
36893,,20.43665,30.33299,Soleb,795863,"20.43665,30.33299",SD, Soleb
20668,,48.224961,5.659733,Sommerécourt,,"48.224961,5.659733",FR, Sommerécourt
45281,Meter,38.314914,23.41583,Soros,,"38.314914,23.41583",GR, 
20096,,42.93333,0.55,Sost,,"42.93333,0.55",FR, Sost
36556,,35.558636,1.314637,Souma,285526,"35.558636,1.314637",DZ, 
36943,,35.223796,7.450176,Souma el Kiata,334622,"35.223796,7.450176",DZ, 
36944,,35.042424,6.954101,Souma n'Ikhetteben,334623,"35.042424,6.954101",DZ, 
37058,,35.025171,8.266307,Soumat el Kheneg,324814,"35.025171,8.266307",DZ, 
22759,Athena,37.652965,24.027035,"Sounion, Athena",579884,"37.652965,24.027035",GR, 
22758,Poseidon,37.650263,24.024606,"Sounion, Poseidon",580086,"37.650263,24.024606",GR, 
20161,,47.48479,4.71968,Sources de la Seine,,"47.48479,4.71968",FR, Poncey-sur-l'Ignon
25631,,51.428061,0.32543,Southfleet,,"51.428061,0.32543",GB, Southfleet
18084,,44.629141,5.022298,Soyans,167928,"44.629141,5.022298",FR, Soyans
37013,,38.661518,20.749081,"Spelaion, Spartokhori",531102,"38.661518,20.749081",GR, 
40136,,40.05547,-7.25653,Sra. do Granja,,"40.05547,-7.25653",PT, 
36853,,36.167888,36.762759,Srir,658603,"36.167888,36.762759",SY, Kafr Karmin
36622,Demeter,46.570868,32.159713,Stanislavskoye,226579,"46.570868,32.159713",UA, Stanislav
36757,Artemis Diktynnaia,38.415573,22.655531,Stavrou,540664,"38.415573,22.655531",GR, 
36555,,35.548873,-0.447241,Ste-Barbe-du-Tlélat,285514,"35.548873,-0.447241",DZ, Oued Tlélat
20468,,49.6766269,6.1132912,Steinsel,,"49.6766269,6.1132912",LU, Steinsel
36751,Apollo,38.585065,23.805061,Steni,540651,"38.585065,23.805061",GR, Loutsa
45282,Poseidon,38.362441,23.14069,Steni,,"38.362441,23.14069",GR, 
26448,,48.04509,16.67557,"Stixneusiedl, Trautmannsdorf an der Leitha",128520,"48.04509,16.67557",AT, Stixneusiedl
44589,"Ares, Aphrodite/Archaion Aphrodision",35.23569,25.7243,"Sto Pyrgo, Ellinika",589707,"35.23569,25.7243",GR, 
20708,,47.1119445,7.2908224,"Studenberg, Studen",,"47.1119445,7.2908224",CH, Studen
39149,,48.762733,9.101792,Stuttgart,,"48.762733,9.101792",DE, Stuttgart
19005,,49.336029,6.606667,"Sudelfels, Ihn",,"49.336029,6.606667",DE, Wallerfangen
36632,Saturnus Balcaranensis,36.713866,10.315167,summit of bou Kournine,315145,"36.713866,10.315167",TN, 
36987,Zeus Ombrios,37.947938,23.819769,summit of Hymettos,580138,"37.947938,23.819769",GR, 
36988,Zeus Panhellenios,37.70783,23.49771,summit of Oros,580139,"37.70783,23.49771",GR, 
36986,Zeus Ombrios,38.174088,23.717493,summit of Parnes,580137,"38.174088,23.717493",GR, 
36922,Meter Theon 1,39.43306,30.39443,Türkmen Baba,609468,"39.43306,30.39443",TR, 
36715,Meter Plastena,38.5829,27.517573,Taş Süret,550736,"38.5829,27.517573",TR, 
37146,,44.616386,22.299992,Tabula Traiana,207484,"44.616386,22.299992",RS, Теkija
37181,,36.661458,47.274938,Takht-i Bilqis,884218,"36.661458,47.274938",IR, gheinarjah
37115,,29.158311,52.678677,Tal-i Hakavan,922728,"29.158311,52.678677",IR, 
37116,,29.89384,51.57157,Tang-i Qandil,922730,"29.89384,51.57157",IR, 
37089,,30.976726,50.142065,Tang-i Sarvak,912948,"30.976726,50.142065",IR, 
20758,,48.130616,6.573987,"Tannières, Archettes",,"48.130616,6.573987",FR, Archettes
37200,,34.38737,47.13218,Taq-e Bostan,903126,"34.38737,47.13218",IR, Kermanshah
37201,,34.433054,46.07918,Taq-i Girra,903127,"34.433054,46.07918",IR, 
37117,,28.963783,52.002416,Taq-i Gunbad,922732,"28.963783,52.002416",IR, 
25431,,53.5799647,-6.6121673,Tara,79708,"53.5799647,-6.6121673",IE, 
39059,,35.84546,14.551872,Tas-Silġ,601235773,"35.84546,14.551872",MT, Marsaxlokk
21308,Hera,40.416189,16.81695,"Tavole Palatine, Bernalda",442611,"40.416189,16.81695",IT, 
36777,,38.604262,21.645255,Taxiarchis,541125,"38.604262,21.645255",GR, Taxiarchis
17655,,47.16617,11.36262,Telfes im Stubai,187576,"47.16617,11.36262",AT, Telfes im Stubai
22942,Amarna,27.645956,30.899569,Tell el-Amarna,149576487,"27.645956,30.899569",EG, 
44506,,34.19744,36.34204,Tell Qasr Labwe,,"34.19744,36.34204",LB, 
37132,,34.10334,35.88477,Tell Yanuh,668400,"34.10334,35.88477",LB, 
36748,Apollo,39.855093,22.558114,"Tempe, Ag. Paraskevi",540648,"39.855093,22.558114",GR, Ampelakia
42508,,24.580059,30.717364,"Tempel 1, Qasr Dush",,"24.580059,30.717364",EG, 
42509,,24.580342,30.71539,"Tempel 2, Qasr Dush",,"24.580342,30.71539",EG, 
19179,,49.7455066,6.6457399,"Tempel am Herrenbrünnchen, Neu-Heiligkreuz",,"49.7455066,6.6457399",DE, TR
42730,,46.774105,15.52324,"Tempel und Höhensiedlung am Frauenberg, Seggauberg",,"46.774105,15.52324",AT, Seggauberg
40727,,49.4258222,8.7062319,Tempel von Mercurius Cimbrianus,,"49.4258222,8.7062319",DE, Heidelberg
39116,,51.850037,5.844198,"Tempel, Nijmegen",,"51.850037,5.844198",NL, Nijmegen
19180,,49.7470407,6.6418503,"Tempelbezirk im Altbachtal, Trier",,"49.7470407,6.6418503",DE, TR
45488,,47.23717,8.81731,"Tempelbezirk, Kempraten",,"47.23717,8.81731",CH, Jona SG
20833,,49.9659360907,6.3906356138,"Tempelhof, Mülbach",,"49.9659360907,6.3906356138",DE, Mülbach
26490,Fons Clitumni,42.842367,12.756672,"Tempieto del Clituno, Pissignano",413140,"42.842367,12.756672",IT, Pissignano
42160,,40.48003,17.86072,"Tempietto Santu Misirinu, San Donaci",,"40.48003,17.86072",IT, 
42665,,38.80706,16.59614,"Tempio antico, Roccelletta",,"38.80706,16.59614",IT, 
42356,,37.5832614,12.8253225,"Tempio C, Selinunte",,"37.5832614,12.8253225",IT, 
23819,,41.840411,12.892478,"Tempio Dea Fortuna, Palestrina",,"41.840411,12.892478",IT, Palestrina
42361,,37.291611,13.581537,"Tempio dei Dioscuri, Agrigento",,"37.291611,13.581537",IT, 
25497,,42.7225286,12.1198882,Tempio del Belvedere,,"42.7225286,12.1198882",IT, Orvieto
42362,,37.289649,13.592024,"Tempio della Concordia, Agrigento",,"37.289649,13.592024",IT, 
42210,,41.9667957,12.8008612,"Tempio della Sibilla, Tivoli",,"41.9667957,12.8008612",IT, Tivoli
42208,,41.962892,12.789358,"Tempio della Tosse, Tivoli",,"41.962892,12.789358",IT, Tivoli
42639,,41.96284,12.78979,"Tempio della Tosse, Tivoli",,"41.96284,12.78979",IT, Tivoli
42350,,37.97398,13.82384,"Tempio della Vittoria, Himera",,"37.97398,13.82384",IT, 
42583,,38.2111392,16.2385225,"Tempio di Afrodite, Locri",,"38.2111392,16.2385225",IT, Mandorleto
37088,Sardus Pater,39.393998,8.500204,"Tempio di Antas, Fluminimaggiore",472015,"39.393998,8.500204",IT, 
36875,Apollo Alaeus,39.3965426,17.1466034,"Tempio di Apollo Aleo, Punta Alice",452262,"39.3965426,17.1466034",IT, 
41885,,40.839336,14.082209,"Tempio di Apollo, Averno, Pozzuoli",,"40.839336,14.082209",IT, 
26492,,37.0639214,15.2927699,"Tempio di Apollo, Ortigia, Siracusa",,"37.0639214,15.2927699",IT, Siracusa
42130,,37.0620197,14.2591007,"Tempio di Atena, Gela",,"37.0620197,14.2591007",IT, Gela
45707,,40.4245,15.0054,"Tempio di Atena, Paestum",,"40.4245,15.0054",IT, Laura
42355,,37.05963,15.29382,"Tempio di Atena, Siracusa",,"37.05963,15.29382",IT, Siracusa
42339,,40.82134,14.12056,"Tempio di Augusto, Pozzuoli",,"40.82134,14.12056",IT, Pozzuoli
42359,,37.292793,13.578637,"Tempio di Efesto, Agrigento",,"37.292793,13.578637",IT, 
45706,,40.42,15.005556,"Tempio di Era I, Paestum",,"40.42,15.005556",IT, Paestum
45705,,40.4199,15.0054,"Tempio di Era II - di Nettuno, Paestum",,"40.4199,15.0054",IT, Laura
25127,,37.29028,13.58611,"Tempio di Ercole, Agrigento",,"37.29028,13.58611",IT, 
25108,,41.64255,12.915671,"Tempio di Ercole, Cori",,"41.64255,12.915671",IT, Cori
42360,,37.282414,13.589656,"Tempio di Esculapio, Agrigento",,"37.282414,13.589656",IT, 
42265,,41.305756,14.562722,"Tempio di Flora, Cerreto Sannita",,"41.305756,14.562722",IT, 
42343,,41.29157,13.25985,"Tempio di Giove Anxur, Terracina",,"41.29157,13.25985",IT, Terracina
38879,,43.4619,12.7045,"Tempio di Giove Appennino, Frontone",,"43.4619,12.7045",IT, 
41634,,40.121441,8.94209,"Tempio di Giove, Bidonì",,"40.121441,8.94209",IT, 
42290,,42.4109,11.286544,"Tempio di Giove, Cosa",,"42.4109,11.286544",IT, 
42938,,40.849414,14.051363,"Tempio di Giove, Cuma",,"40.849414,14.051363",IT, Monte di Cuma
26493,Olympieion,37.0517033,15.2569807,"Tempio di Giove, Siracusa",462398,"37.0517033,15.2569807",IT, 
42363,,37.2885632,13.6001477,"Tempio di Giunone, Agrigento",,"37.2885632,13.6001477",IT, 
42133,,37.5867781,12.8344372,"Tempio di Hera (E), Selinunte",,"37.5867781,12.8344372",IT, Marinella
42331,,43.769375,11.258083,"Tempio di Iside, Firenze",,"43.769375,11.258083",IT, Firenze
42575,,41.5132982,12.7551881,"Tempio di Mater Matuta, Le Ferriere",,"41.5132982,12.7551881",IT, Le Ferriere
42242,,43.071389,12.614722,"Tempio di Minerva, Assisi",,"43.071389,12.614722",IT, Assisi
22924,,41.889232,12.480883,Tempio di Portuno,422925,"41.889232,12.480883",IT, Roma
42667,,40.47357,17.23427,"Tempio di Poseidone, Taranto",,"40.47357,17.23427",IT, Taranto
42209,,41.9666214,12.8009296,"Tempio di Vesta, Tivoli",,"41.9666214,12.8009296",IT, Tivoli
25126,,37.2908284,13.5842133,"Tempio di Zeus Olimpio, Agrigento",,"37.2908284,13.5842133",IT, 
42349,,37.94152,12.83203,"Tempio Dorico, Calatafimi-Segesta",,"37.94152,12.83203",IT, 
42668,,40.47379,17.23301,"Tempio dorico, Taranto",,"40.47379,17.23301",IT, Taranto
42357,,37.5874413,12.8345377,"Tempio F, Selinunte",,"37.5874413,12.8345377",IT, Marinella
42358,,37.5883394,12.8343698,"Tempio G, Selinunte",,"37.5883394,12.8343698",IT, Marinella
42578,,41.6811556,12.6986417,"Tempio romano, Lanuvio",,"41.6811556,12.6986417",IT, Lanuvio
42659,,39.071279,8.45288,"Tempio romano, Sant'Antioco",,"39.071279,8.45288",IT, Sant'Antioco
42365,,37.43876,14.49066,"Tempio, Serra Orlando",,"37.43876,14.49066",IT, 
39452,,43.67658,4.62592,"Temple antique, Arles",,"43.67658,4.62592",FR, Arles
7874,,47.3936,0.68807,"Temple antique, Tours",,"47.3936,0.68807",FR, Tours
39109,,50.783756,5.459994,"Temple complex, Tongeren",,"50.783756,5.459994",BE, Tongeren
20207,,45.5254675,4.87428,"Temple d'Auguste et de Livie, Vienne",,"45.5254675,4.87428",FR, Vienne
39339,,45.8491,0.76742,Temple de Chassenon,,"45.8491,0.76742",FR, Chassenon
39462,,45.759597,4.818464,"Temple de Cybèle, Lyon",,"45.759597,4.818464",FR, Lyon
39301,,43.839885,4.3485246,"Temple de Diane, Nîmes",,"43.839885,4.3485246",FR, Nîmes
20795,,46.961217,4.288496,"Temple de Janus, Autun",,"46.961217,4.288496",FR, Autun
18750,,48.260586,-0.498662,"Temple de la Fortune, Jublains",,"48.260586,-0.498662",FR, Jublains
20463,,46.8822014,7.0450441,"Temple de la grange-des-Dîmes, Avenches",,"46.8822014,7.0450441",CH, Avenches
20763,,48.471769,-2.146583,"Temple de Mars, Haut-Bécherel, Corseul",636775194,"48.471769,-2.146583",FR, Corseul
17715,,45.771822,2.964402,"Temple de Mercure, Puy de Dôme",138464,"45.771822,2.964402",FR, Orcines
20464,,46.8818599,7.0464302,"Temple du Cigognier, Avenches",,"46.8818599,7.0464302",CH, Avenches
39561,,46.516842948,6.601394797,"temple gallo-romain, Lausanne-Vidy",,"46.516842948,6.601394797",CH, Lausanne
42930,,47.32405,1.29908,"Temple Gallo-romain, Pouillé",,"47.32405,1.29908",FR, Pouillé
39461,,47.6714454,-2.7502136,"Temple gallo-romain, Vannes",,"47.6714454,-2.7502136",FR, Vannes
43041,,40.07699,23.44862,Temple of Ammon Zeus,,"40.07699,23.44862",GR, Kallithea
22615,Aphaia,37.754475,23.53304,Temple of Aphaea,579872,"37.754475,23.53304",GR, 
25124,,37.976,23.7217,Temple of Aphrodite Urania,,"37.976,23.7217",GR, Athina
25125,,37.9755,23.7221,Temple of Apollo Patroos,,"37.9755,23.7221",GR, Athina
43050,,39.33372,21.8193,"Temple of Apollo, Mitropoli",,"39.33372,21.8193",GR, 
22874,,39.6075,19.917778,"Temple of Artemis, Kerkyra",,"39.6075,19.917778",GR, Kerkira
43012,,37.853255,27.527297,"Temple of Artemis, Magnesia on the Meander ",,"37.853255,27.527297",TR, 
43013,,38.479327,28.031187,"Temple of Artemis, Sardis",,"38.479327,28.031187",TR, 
22847,Artemis,37.9498235,27.363816,"Temple of Artemis, Selçuk",,"37.9498235,27.363816",TR, 
44503,,33.894687,35.962436,"Temple of Atargatis, Niha",,"33.894687,35.962436",LB, 
43656,,37.45557,22.4204,"Temple of Athena Alea, Alea",,"37.45557,22.4204",GR, Alea
25117,,37.971564,23.725054,Temple of Athena Nike,,"37.971564,23.725054",GR, Athina
43424,,37.502,27.5248,"Temple of Athena, Kapıkırı",,"37.502,27.5248",TR, 
20227,,44.8701318,13.8418835,"Temple of Augustus, Pula",,"44.8701318,13.8418835",HR, Pula
42467,,22.800997,32.545747,Temple of Dakka (relocated),,"22.800997,32.545747",EG, 
44504,,33.895297,35.963134,"Temple of Hadaranes, Niha",,"33.895297,35.963134",LB, 
25822,,37.938169,27.3424679,Temple of Hadrian,,"37.938169,27.3424679",TR, 
25120,,37.975617,23.721392,Temple of Hephaestus,,"37.975617,23.721392",GR, Athina
41878,,37.638889,21.629722,"Temple of Hera, Olympia",,"37.638889,21.629722",GR, 
44434,,31.953936,35.934868,"Temple of Hercules, Amman",,"31.953936,35.934868",JO, Amman
42468,,22.800667,32.547597,Temple of Maharraqa (relocated),,"22.800667,32.547597",EG, 
25121,,37.969372,23.733078,Temple of Olympian Zeus (Athens),,"37.969372,23.733078",GR, Athina
42604,,37.9158514,22.992664,"Temple of Poseidon, Isthmia",,"37.9158514,22.992664",GR, Kiras Vrisi
43227,,36.209169,36.656533,"Temple of Zeus Bomos, Baqirha",,"36.209169,36.656533",SY, 
43031,,38.67117,21.31115,"Temple of Zeus, Stratos",,"38.67117,21.31115",GR, 
43304,,36.58051,33.92482,"Temple of Zeus, Uzuncaburç",,"36.58051,33.92482",TR, 
20105,,46.2234,5.55866,"Temple romain, Izernore",,"46.2234,5.55866",FR, Izernore
43044,,40.605091,24.742005,"Temple, Aliki",,"40.605091,24.742005",GR, 
20175,,45.282385,-0.838316,"Temple, Brion",,"45.282385,-0.838316",FR, Saint-Seurin-de-Cadourne
20780,,47.305704,-0.161236,"Temple, Chênehutte",,"47.305704,-0.161236",FR, Chênehutte-Trèves-Cunault
39380,,47.66022,0.23535,"Temple, Cherré",,"47.66022,0.23535",FR, Aubigné-Racan
39113,,51.72913,5.883986,"Temple, Cuijk",,"51.72913,5.883986",NL, Cuijk
20619,,43.709722,-1.052222,"Temple, Dax",,"43.709722,-1.052222",FR, Dax
26202,,52.586035,-3.161544,"Temple, Forden Gaer",,"52.586035,-3.161544",GB, 
25705,,50.69495,-2.467,"Temple, Maiden Castle",,"50.69495,-2.467",GB, 
20265,,51.669368,6.446202,"temple, Xanten",,"51.669368,6.446202",DE, Xanten
25805,,38.572611,-7.907358,Templo de Diana,,"38.572611,-7.907358",PT, Évora
45655,,38.91651,-6.34437,"Templo de Diana, Mérida",,"38.91651,-6.34437",ES, Mérida
42686,,37.440264,-6.04464,Templo de Trajano de Itálica,,"37.440264,-6.04464",ES, Santiponce
39983,,37.884756,-4.776296,"Templo romano, Córdoba",,"37.884756,-4.776296",ES, Córdoba
36724,Apollo et Nymphae Nitrodes,40.70406,13.90456,"Terme di Cavascura, Serrara Fontana",432682,"40.70406,13.90456",IT, 
17703,,46.81356,2.639874,Thaumiers,138615,"46.81356,2.639874",FR, Thaumiers
36707,Meter Theon,36.421916,25.429043,Thera,599797,"36.421916,25.429043",GR, Thira
25481,,52.744512,-0.654155,Thistleton,79712,"52.744512,-0.654155",GB, 
42563,,46.70695,14.05645,Tiffen,,"46.70695,14.05645",AT, 
36963,,32.004492,11.364738,Tigi,344515,"32.004492,11.364738",LY, Badr
36964,,31.383351,13.780278,Tininai,344518,"31.383351,13.780278",LY, Tininai
25675,,51.275894,0.035848,Titsey,,"51.275894,0.035848",GB, 
22225,,41.723453,12.6646233,"Tomba degli Orazi e Curiazi, Ariccia",423083,"41.723453,12.6646233",IT, 
37162,,41.95177,12.71357,"Tomba di Marco Plauzio Lucano, Tivoli",423084,"41.95177,12.71357",IT, Tivoli Terme
37163,,41.965501,12.442521,"Tomba di Nerone, Roma",423085,"41.965501,12.442521",IT, Roma
23811,,36.84125,10.322664,Tophet de Salammbô,,"36.84125,10.322664",TN, Carthage
37164,,41.974435,12.680493,Torraccia dell’Inviolata,423091,"41.974435,12.680493",IT, 
39980,,37.614808,-0.970342,"Torre Ciega, Cartagena",,"37.614808,-0.970342",ES, Cartagena
22473,,41.132017,1.318856,"Torre de los Escipiones, Tarragona",246696,"41.132017,1.318856",ES, Tarragona
39981,,38.5163318,-0.1970617,"Torre de Sant Josep, Villajoyosa ",,"38.5163318,-0.1970617",ES, Villajoyosa
37059,,41.67813,1.85479,"Torre del Breny, Castellgalí",246698,"41.67813,1.85479",ES, Castellgalí
36862,,37.73783,15.00138,"Torre del Filosofo, Nicolosi",462519,"37.73783,15.00138",IT, 
26599,,41.49409,12.65761,"Torre del Monumento, Nettuno",423096,"41.49409,12.65761",IT, Nettuno
26598,,41.55546,12.70544,"Torre di Padiglione, Aprilia",423097,"41.55546,12.70544",IT, 
22898,,41.806749,14.481075,"Torre, Taverna, Schiavi di Abruzzo",433112,"41.806749,14.481075",IT, 
36873,,40.3542,17.49911,Torricella,442829,"40.3542,17.49911",IT, Torricella
37060,,41.68306,0.68125,"Tossal del Moro, Corbins",246703,"41.68306,0.68125",ES, 
36666,,35.159374,33.900893,Toumpa,707634,"35.159374,33.900893",,
18152,,47.89645239,1.1837077,"Tour de Grisset, Fréteval",138623,"47.89645239,1.1837077",FR, Fréteval
20616,,45.179444,0.714361,"Tour de Vésone, Périgueux",,"45.179444,0.714361",FR, Périgueux
36667,,35.387553,33.86049,Trakhonas,707635,"35.387553,33.86049",,
26603,,41.654245,12.473943,Tredici Altari,423104,"41.654245,12.473943",IT, 
36979,,37.677674,24.334,Treis Ammoundas,570747,"37.677674,24.334",GR, 
36965,,32.876858,13.23445,Trigh-Tarhuna,344521,"32.876858,13.23445",LY, Tripoli
39456,,48.0752986,-4.3144229,"Trogouzel, Douarnenez",,"48.0752986,-4.3144229",FR, Douarnenez
38778,,46.64874,7.06377,"Tronche-Bélon, Riaz",,"46.64874,7.06377",CH, Riaz
39095,,48.05822529,-4.70524622,"Trouguer, Cléden-Cap-Sizun",,"48.05822529,-4.70524622",FR, Cléden-Cap-Sizun
36762,Dionysos,38.514628,22.950869,Tzamali,540735,"38.514628,22.950869",GR, Dionisos
17286,,47.218016,8.77874,"Ufenau, Freienbach",187387,"47.218016,8.77874",CH, Freienbach
36675,,29.20168,25.54492,Umm Ubaydah,716644,"29.20168,25.54492",EG, Siwa Oasis
36626,,41.737926,13.164441,Untitled,183817917,"41.737926,13.164441",IT, 
36634,,36.121072,9.283819,Untitled,320126,"36.121072,9.283819",TN, 
36720,,42.002816,12.635639,Untitled,426594,"42.002816,12.635639",IT, 
36721,,41.705747,13.123769,Untitled,426637,"41.705747,13.123769",IT, 
36722,,41.755024,13.13817,Untitled,426638,"41.755024,13.13817",IT, 
36755,Apollo Thourios,38.496975,22.822602,Untitled,540655,"38.496975,22.822602",GR, 
36790,,36.536647,9.981865,Untitled,208942153,"36.536647,9.981865",TN, 
36791,,36.893862,9.968177,Untitled,208942154,"36.893862,9.968177",TN, 
36792,,36.69275,9.822699,Untitled,208942155,"36.69275,9.822699",TN, Furna
36793,,36.663072,9.788983,Untitled,208942156,"36.663072,9.788983",TN, 
36794,,36.585366,9.773707,Untitled,208942157,"36.585366,9.773707",TN, 
36795,,36.640095,9.943045,Untitled,208942169,"36.640095,9.943045",TN, 
36796,,36.585175,9.967465,Untitled,208942170,"36.585175,9.967465",TN, 
36797,,36.919468,9.580764,Untitled,208942171,"36.919468,9.580764",TN, 
36798,,36.819176,9.691143,Untitled,208942172,"36.819176,9.691143",TN, 
36799,,36.86658,9.575836,Untitled,208942173,"36.86658,9.575836",TN, 
36800,,36.634297,9.549035,Untitled,208942198,"36.634297,9.549035",TN, 
36801,,36.535109,9.853538,Untitled,208942199,"36.535109,9.853538",TN, 
36802,,36.880397,9.64626,Untitled,208942200,"36.880397,9.64626",TN, 
36803,,36.881504,9.766941,Untitled,208942201,"36.881504,9.766941",TN, 
36804,,36.397935,9.909922,Untitled,208942217,"36.397935,9.909922",TN, 
36805,,36.436293,9.948515,Untitled,208942218,"36.436293,9.948515",TN, 
36806,,36.411296,9.68599,Untitled,208942228,"36.411296,9.68599",TN, 
36807,,36.460714,9.617028,Untitled,208942229,"36.460714,9.617028",TN, 
36808,,36.183052,9.753109,Untitled,208942235,"36.183052,9.753109",TN, 
36809,,36.260454,9.518791,Untitled,208942236,"36.260454,9.518791",TN, 
36810,,36.003258,9.522652,Untitled,208942237,"36.003258,9.522652",TN, Bargou
36811,,36.123503,9.52298,Untitled,208942238,"36.123503,9.52298",TN, Bargou
36812,,36.000998,9.541708,Untitled,208942240,"36.000998,9.541708",TN, 
36813,,36.154899,9.580567,Untitled,208942241,"36.154899,9.580567",TN, 
36814,,36.134422,9.572995,Untitled,208942242,"36.134422,9.572995",TN, 
36815,,36.485097,9.549314,Untitled,208942243,"36.485097,9.549314",TN, 
36816,,36.281204,9.530157,Untitled,208942244,"36.281204,9.530157",TN, 
36817,,36.180674,9.982558,Untitled,208942245,"36.180674,9.982558",TN, 
36818,,36.01252,9.590896,Untitled,208942246,"36.01252,9.590896",TN, 
36819,,36.01135,9.534732,Untitled,208942247,"36.01135,9.534732",TN, 
36820,,36.011995,9.512604,Untitled,208942248,"36.011995,9.512604",TN, 
36821,,36.824107,8.178444,Untitled,208942319,"36.824107,8.178444",DZ, Berrihane
36822,,36.742036,8.670583,Untitled,208942344,"36.742036,8.670583",TN, 
36823,,36.619025,8.75442,Untitled,208942345,"36.619025,8.75442",TN, 
36824,,36.014267,9.219678,Untitled,208942386,"36.014267,9.219678",TN, 
36825,,36.492807,9.235644,Untitled,208942387,"36.492807,9.235644",TN, 
36826,,36.380096,9.049712,Untitled,208942406,"36.380096,9.049712",TN, 
36827,,36.01836,9.210786,Untitled,208942423,"36.01836,9.210786",TN, 
36828,,36.377232,9.320599,Untitled,208942425,"36.377232,9.320599",TN, 
36829,,37.104867,9.518982,Untitled,208942440,"37.104867,9.518982",TN, 
36830,,37.141123,9.259039,Untitled,208942474,"37.141123,9.259039",TN, 
36831,,37.103548,9.30907,Untitled,208942476,"37.103548,9.30907",TN, 
36832,,37.145748,9.273721,Untitled,208942477,"37.145748,9.273721",TN, 
36833,,37.12669,9.25199,Untitled,208942479,"37.12669,9.25199",TN, 
36834,,37.112077,9.199409,Untitled,208942480,"37.112077,9.199409",TN, 
36835,,36.515672,9.352382,Untitled,208942488,"36.515672,9.352382",TN, 
36836,,36.911743,9.276129,Untitled,208942504,"36.911743,9.276129",TN, 
36837,,36.993519,9.210945,Untitled,208942505,"36.993519,9.210945",TN, 
36838,,36.764193,9.35865,Untitled,208942506,"36.764193,9.35865",TN, 
36839,,36.072028,7.94028,Untitled,208942852,"36.072028,7.94028",DZ, 
36840,,35.314794,10.894677,Untitled,208943012,"35.314794,10.894677",TN, 
36841,,35.491404,10.896732,Untitled,208943013,"35.491404,10.896732",TN, 
36842,,35.172574,10.773105,Untitled,208943014,"35.172574,10.773105",TN, Baltech
36843,,35.165958,9.589019,Untitled,208943045,"35.165958,9.589019",TN, 
36844,,34.724983,9.928953,Untitled,208943058,"34.724983,9.928953",TN, 
36845,,34.63263,9.79794,Untitled,208943059,"34.63263,9.79794",TN, 
36846,,35.99891,9.592004,Untitled,208943081,"35.99891,9.592004",TN, 
36847,,35.862847,9.729603,Untitled,208943101,"35.862847,9.729603",TN, 
36848,,35.887428,9.633575,Untitled,208943102,"35.887428,9.633575",TN, 
36849,,35.843711,9.500081,Untitled,208943103,"35.843711,9.500081",TN, 
36850,,35.92969,9.594608,Untitled,208943104,"35.92969,9.594608",TN, 
36851,,35.555606,10.200033,Untitled,208943121,"35.555606,10.200033",TN, 
36973,,33.566,9.685172,Untitled,347302,"33.566,9.685172",TN, 
36974,,31.746343,13.681433,Untitled,347304,"31.746343,13.681433",LY, 
36975,,31.40337,14.63255,Untitled,347305,"31.40337,14.63255",LY, Bani Waled
37016,,35.109697,10.240698,Untitled,208943139,"35.109697,10.240698",TN, 
37017,,36.437302,10.183065,Untitled,208943212,"36.437302,10.183065",TN, 
37018,,36.311514,10.155204,Untitled,208943240,"36.311514,10.155204",TN, 
37019,,36.163449,10.193571,Untitled,208943241,"36.163449,10.193571",TN, 
37020,,36.373614,10.019356,Untitled,208943242,"36.373614,10.019356",TN, 
37021,,36.257925,10.225705,Untitled,208943244,"36.257925,10.225705",TN, 
37022,,36.28534,10.105192,Untitled,208943245,"36.28534,10.105192",TN, 
37023,,36.607655,10.054676,Untitled,208943282,"36.607655,10.054676",TN, 
37024,,34.978344,8.723842,Untitled,208943424,"34.978344,8.723842",TN, 
37025,,34.569736,8.753278,Untitled,208943435,"34.569736,8.753278",TN, 
37026,,34.8835,8.92647,Untitled,208943436,"34.8835,8.92647",TN, 
37027,,34.922651,8.964269,Untitled,208943437,"34.922651,8.964269",TN, 
37028,,34.939533,8.975685,Untitled,208943438,"34.939533,8.975685",TN, 
37029,,34.983236,8.906619,Untitled,208943439,"34.983236,8.906619",TN, 
37030,,34.650765,8.749276,Untitled,208943440,"34.650765,8.749276",TN, 
37031,,34.611325,8.192699,Untitled,208943465,"34.611325,8.192699",DZ, 
37032,,34.62157,8.191774,Untitled,208943466,"34.62157,8.191774",DZ, 
37033,,35.193683,9.295605,Untitled,208943518,"35.193683,9.295605",TN, Cebalet Ouled Aster
37034,,35.061603,9.293783,Untitled,208943519,"35.061603,9.293783",TN, 
37035,,35.01374,9.277075,Untitled,208943520,"35.01374,9.277075",TN, 
37036,,35.121568,9.208991,Untitled,208943521,"35.121568,9.208991",TN, 
37037,,35.251306,9.07172,Untitled,208943540,"35.251306,9.07172",TN, 
37038,,35.872012,9.364284,Untitled,208943565,"35.872012,9.364284",TN, 
37039,,35.851094,9.156053,Untitled,208943566,"35.851094,9.156053",TN, 
37040,,34.696131,10.19808,Untitled,208943701,"34.696131,10.19808",TN, 
37041,,34.76179,10.339096,Untitled,208943702,"34.76179,10.339096",TN, 
37042,,34.712644,10.292548,Untitled,208943703,"34.712644,10.292548",TN, 
37043,,34.667613,10.127074,Untitled,208943705,"34.667613,10.127074",TN, 
37044,,34.802735,10.005569,Untitled,208943706,"34.802735,10.005569",TN, 
37045,,34.659149,10.082704,Untitled,208943707,"34.659149,10.082704",TN, 
37046,,36.507337,6.489765,Untitled,208943721,"36.507337,6.489765",DZ, Beni Hamidene
37203,,31.146289,16.749739,Untitled,963101009,"31.146289,16.749739",LY, 
37204,,32.477054,14.461641,Untitled,963101382,"32.477054,14.461641",LY, Zliten
38773,,46.735368,6.668238,Ursins,,"46.735368,6.668238",CH, Ursins
18216,,44.394282,4.774947,Val des Nymphes,167950,"44.394282,4.774947",FR, La Garde-Adhémar
18033,,45.086606,5.68182,Varces,167955,"45.086606,5.68182",FR, Varces-Allières-et-Risset
36985,Pan kai Nymphai,37.858,23.802,Vari,580056,"37.858,23.802",GR, 
23754,,41.808056,14.261944,"Vastogirardi, Capracotta",433182,"41.808056,14.261944",IT, 
17386,,43.6235617,7.1285981,Vaugrenier,157943,"43.6235617,7.1285981",FR, Villeneuve-Loubet
39584,,37.25595,-3.7787,Velillos,,"37.25595,-3.7787",ES, Pinos Puente
20869,,49.5054779,5.456606,Velosnes,,"49.5054779,5.456606",FR, Velosnes
36778,,38.390531,24.089463,Velousia,541171,"38.390531,24.089463",GR, Velos
18051,,44.301093,5.345645,Vercoiran,167963,"44.301093,5.345645",FR, Vercoiran
2022,Verbinum/Vironum,49.834435,3.907087,Vervins,109416,"49.834435,3.907087",FR, Vervins
45199,,45.25405,2.89256,"Veyrines, Landeyrat",,"45.25405,2.89256",FR, Landeyrat
37062,,41.309669,1.35811,Vila-rodona,246746,"41.309669,1.35811",ES, Vila-rodona
37061,,41.956389,2.773002,Vilablareix,246745,"41.956389,2.773002",ES, Vilablareix
22226,Pompeo,41.7302569,12.6547804,"Villa di Pompeo, Albano Laziale",423006,"41.7302569,12.6547804",IT, Albano Laziale
26561,,42.64935,13.05638,"Villa San Silvestro, Cascia",413384,"42.64935,13.05638",IT, 
20623,,47.307056,2.297843,"Villate, Neuvy-sur-Barangeon",138484,"47.307056,2.297843",FR, Neuvy-sur-Barangeon
20626,,45.263594,0.362491,Villetoureix,,"45.263594,0.362491",FR, Villetoureix
18171,,48.201924,5.942988,Vittel,109440,"48.201924,5.942988",FR, Vittel
26575,,42.128128,13.817603,Vittorito,413387,"42.128128,13.817603",IT, Vittorito
37049,,41.47414,22.16538,Vojshanci,491752,"41.47414,22.16538",MK, Vojshanci
36768,Krounoi,38.421621,21.815543,Vomvokou,540893,"38.421621,21.815543",GR, Vomvokou
22723,Apollo Agyates,35.233592,33.489247,Voni,707474,"35.233592,33.489247",,
20606,,50.5026087,6.6518586,"Vor Hirschberg, Zingsheim",,"50.5026087,6.6518586",DE, Nettersheim
36668,,35.406,33.85079,Vounari,707641,"35.406,33.85079",,
36966,,31.266544,13.616682,Wadi Antar,344543,"31.266544,13.616682",LY, 
36967,,31.613804,12.983422,Wadi Lella,344549,"31.613804,12.983422",LY, Garyan
36968,,32.161528,10.756757,Wadi Merteba,344552,"32.161528,10.756757",TN, 
36969,,31.533778,13.749422,Wadi Migdal,344554,"31.533778,13.749422",LY, Bani Waled
36583,,32.7501975,21.7786585,Wadi Senab,373909,"32.7501975,21.7786585",LY, Al Bayda
36970,,30.430352,13.35256,Wadi Tabuniya,344562,"30.430352,13.35256",LY, 
36971,,30.83315,13.483348,Wadi Taghiggia,344563,"30.83315,13.483348",LY, 
25680,,51.237307,-0.686418,Wanborough,79746,"51.237307,-0.686418",GB, Normandy
37202,,33.388125,46.570065,War Pil,903143,"33.388125,46.570065",IR, 
39152,,48.9605275,7.6168149,Wasenbourg,,"48.9605275,7.6168149",FR, Niederbronn-les-Bains
20761,,48.713898,7.289902,"Wasserwald, Haegen",109026,"48.713898,7.289902",FR, Haegen
19131,,49.85783,7.16251,"Wederath, Temple district",,"49.85783,7.16251",DE, Morbach
25607,,51.695648,-2.306678,"West Hill, Uley",79726,"51.695648,-2.306678",GB, Uley
25602,,51.493006,-0.818089,Weycock Hill,79755,"51.493006,-0.818089",GB, 
20861,,50.011635535,6.4552276595,Wiersdorf,,"50.011635535,6.4552276595",DE, Wiersdorf
20879,,51.234325,4.527566,Wijnegem,,"51.234325,4.527566",BE, Wijnegem
20862,,50.1485026492,6.4173810434,Winringen,,"50.1485026492,6.4173810434",DE, Winringen
42219,,49.659225,5.849268,Wolberg,,"49.659225,5.849268",BE, Arlon
20845,,49.9167054839,6.4566067959,Wolsfeld,,"49.9167054839,6.4566067959",DE, Wolsfeld
25597,,51.808933,-1.22367,"Woodeaton, Islip",79769,"51.808933,-1.22367",GB, 
37131,,34.130243,36.029792,Yammune,668399,"34.130243,36.029792",LB, 
36926,Zeus Alsenos,38.913829,30.989124,"Yanal Mevkii, Kurudere",609574,"38.913829,30.989124",TR, 
36616,Hephaistion,36.44267,30.46626,Yanar Taş,638856,"36.44267,30.46626",TR, 
44510,,33.603056,35.944167,Yanta,,"33.603056,35.944167",LB, 
36586,Pelopis Thronus,38.578834,27.498105,Yarıkkaya,550810,"38.578834,27.498105",TR, 
36930,Zeus Bronton,39.122087,29.909651,Yayla,609579,"39.122087,29.909651",TR, 
36914,Hosion kai Dikaion,39.320224,29.887704,Yaylababa,609407,"39.320224,29.887704",TR, 
36903,Agdistis,39.198474,30.71494,Yazılıkaya,609290,"39.198474,30.71494",TR, 
36614,Apollo,37.463994,30.91288,"Yazılıkaya, Çandır",638754,"37.463994,30.91288",TR, 
36591,Thea Larmene,38.645519,28.535958,Yeşiloba Tepe?,550918,"38.645519,28.535958",TR, 
22732,,34.8994399,32.3112858,Yeronissos,707511,"34.8994399,32.3112858",CY, Peyia
36900,Sinuri,37.266085,27.924663,Yu. Kadınağıl,599936,"37.266085,27.924663",TR, 
36972,,32.410867,14.918306,Zaviet el-Mahgiub,344570,"32.410867,14.918306",LY, Misrata
36640,,33.7121,35.90174,"Zekweh, Majdal Anjar",678455,"33.7121,35.90174",LB, 
43055,,40.1753337,22.494827,"Zeus Hypsistos, Dion",,"40.1753337,22.494827",GR, 
24871,Zeus Lykaios,37.448354,21.995469,Zeus Lykaios,570764,"37.448354,21.995469",GR, 
43052,,40.1714211,22.4960864,"Zeus Olympios, Dion",,"40.1714211,22.4960864",GR, 
4963,,46.630885,9.440684,Zillis,187632,"46.630885,9.440684",CH, Zillis
36615,Eurymedon,37.823352,31.127989,Zindan Mağarası,638837,"37.823352,31.127989",TR, 
20878,,51.469144,4.656664,Zundert,,"51.469144,4.656664",NL, Zundert
